{"type": "FeatureCollection", "features": [{"type": "Feature", "properties": {"ship": "Lord Walsingham", "company": "EIC", "power": "uk", "date_start": "1787-04-03", "date_end": "1787-09-06", "FromYear": 1787, "ToYear": 1787, "size": 3040}, "geometry": {"type": "LineString", "coordinates": [[-4.52, 49.65], [-7.78, 48.8], [-8.8, 48.27], [-10.95, 47.35], [-12.93, 45.37], [-12.7, 44.1], [-13.07, 43.47], [-13.68, 42.97], [-15.18, 41.45], [-16.65, 39.55], [-16.65, 38.38], [-16.53, 35.1], [-17.8, 33.9], [-18.52, 32.83], [-18.55, 32.25], [-18.67, 30.83], [-18.8, 28.98], [-19.32, 27.38], [-20.25, 25.68], [-21.45, 23.67], [-22.68, 21.58], [-23.63, 20.1], [-24.17, 19.22], [-24.75, 17.55], [-24.67, 15.83], [-25.77, 13.98], [-25.27, 12.5], [-24.28, 10.67], [-23.1, 8.72], [-22.15, 7.13], [-21.2, 5.78], [-20.38, 4.73], [-19.53, 3.2], [-18.27, 2.6], [-17.48, 2.35], [-17.52, 2.37], [-17.62, 2.13], [-17.88, 1.63], [-18.0, 1.23], [-18.48, 0.38], [-19.15, -1.13], [-19.33, -1.97], [-20.23, -3.8], [-22.67, -5.63], [-23.05, -7.38], [-23.47, -8.95], [-24.18, -11.0], [-24.73, -13.0], [-25.53, -14.63], [-26.3, -15.98], [-25.95, -16.75], [-25.05, -17.25], [-24.58, -17.83], [-24.28, -18.25], [-25.43, -20.0], [-25.52, -21.47], [-24.32, -22.53], [-22.48, -23.52], [-21.48, -23.95], [-19.03, -24.32], [-19.68, -24.57], [-20.55, -25.57], [-20.32, -26.63], [-18.6, -28.47], [-16.42, -28.57], [-14.45, -28.13], [-15.05, -28.57], [-15.28, -30.1], [-14.72, -31.57], [-13.32, -32.95], [-11.02, -33.92], [-9.03, -34.42], [-7.87, -34.42], [-7.8, -34.43], [-5.77, -34.67], [-0.7, -35.73], [2.95, -36.0], [5.88, -36.18], [8.8, -36.38], [11.42, -36.4], [14.7, -36.43], [17.67, -36.0], [21.18, -35.82], [24.02, -35.52], [24.07, -35.9], [27.83, -36.32], [31.25, -37.12], [35.05, -37.38], [37.15, -37.4], [40.98, -37.87], [44.38, -37.85], [46.93, -37.78], [48.83, -37.38], [50.5, -37.95], [53.72, -38.5], [55.7, -38.05], [59.67, -37.77], [61.2, -37.55], [64.1, -37.07], [66.82, -37.15], [69.6, -36.4], [71.55, -35.25], [72.92, -34.35], [74.18, -33.5], [74.6, -33.97], [76.75, -33.92], [77.58, -33.05], [78.08, -33.43], [78.53, -33.75], [79.37, -34.5], [80.52, -35.37], [82.43, -36.12], [85.47, -36.17], [88.72, -35.7], [92.02, -34.05], [94.68, -32.5], [96.1, -30.88], [97.32, -29.25], [99.87, -25.18], [100.75, -22.85], [101.37, -20.68], [102.12, -19.32], [103.1, -17.23], [103.58, -15.55], [104.53, -14.93], [105.27, -14.02], [105.83, -12.6], [106.43, -10.78], [106.78, -8.33], [107.5, -8.77], [102.28, -7.82], [100.43, -7.28], [98.95, -6.28], [97.83, -5.1], [97.07, -4.03], [96.73, -3.95], [96.37, -3.47], [96.75, -2.67], [96.93, -1.9], [96.98, -1.1], [97.1, -0.73], [96.83, -0.38], [96.93, -0.42], [97.93, -0.8], [97.7, -0.78], [98.4, -2.1], [99.12, -3.12], [99.83, -3.17], [100.55, -4.6], [101.27, -4.88]]}}, {"type": "Feature", "properties": {"ship": "Tigris", "company": "EIC", "power": "uk", "date_start": "1808-10-26", "date_end": "1809-05-12", "FromYear": 1808, "ToYear": 1809, "size": 2699}, "geometry": {"type": "LineString", "coordinates": [[81.5, 12.8], [81.8, 12.98], [81.67, 12.87], [81.48, 12.93], [82.63, 11.4], [82.97, 10.77], [84.23, 9.57], [84.93, 8.58], [85.17, 8.38], [85.48, 7.82], [85.6, 7.35], [86.78, 6.18], [86.62, 2.08], [87.47, 0.55], [88.27, -0.88], [88.43, -1.87], [88.33, -3.15], [88.55, -4.08], [88.52, -4.13], [89.02, -4.78], [89.82, -7.57], [90.12, -8.4], [90.62, -9.58], [90.65, -9.62], [91.35, -10.37], [91.3, -10.87], [91.78, -11.58], [89.62, -11.78], [87.9, -13.07], [86.73, -14.17], [84.05, -15.93], [82.73, -17.12], [79.13, -18.1], [76.62, -19.08], [73.65, -20.1], [71.15, -21.07], [68.32, -22.27], [67.55, -22.62], [65.72, -23.28], [62.85, -23.63], [62.5, -23.98], [60.4, -24.35], [59.05, -24.53], [58.08, -25.2], [54.02, -26.67], [51.37, -27.47], [49.27, -27.83], [46.03, -28.52], [43.85, -29.42], [41.25, -29.85], [38.62, -30.17], [39.22, -31.22], [38.75, -31.43], [36.97, -31.43], [36.03, -31.37], [32.92, -32.08], [31.63, -33.27], [30.3, -32.75], [29.82, -32.6], [28.42, -33.87], [27.7, -34.18], [27.52, -34.93], [24.55, -35.42], [23.47, -35.7], [22.67, -35.15], [22.07, -35.13], [22.67, -35.3], [22.98, -35.12], [22.27, -35.28], [20.77, -35.5], [21.0, -35.8], [21.23, -36.13], [20.6, -36.45], [19.33, -36.67], [18.73, -35.48], [17.82, -33.83], [16.22, -32.17], [13.72, -30.18], [11.43, -28.57], [9.12, -27.32], [6.4, -25.73], [3.87, -24.17], [1.8, -22.55], [-2.3, -19.0], [-4.02, -17.32], [-6.05, -15.02], [-8.08, -15.08], [-9.47, -14.07], [-10.8, -12.75], [-12.05, -11.35], [-12.63, -9.63], [-16.32, -5.48], [-17.4, -3.33], [-18.13, -1.63], [-18.23, -0.9], [-18.4, 0.08], [-19.33, 1.38], [-19.9, 1.93], [-19.6, 2.37], [-19.58, 2.13], [-19.45, 2.47], [-19.6, 2.93], [-19.83, 3.4], [-19.82, 3.67], [-19.43, 4.07], [-19.33, 3.78], [-20.07, 3.88], [-20.23, 4.37], [-21.57, 4.5], [-23.47, 5.38], [-24.77, 6.48], [-26.28, 7.58], [-27.82, 8.92], [-28.52, 10.65], [-30.33, 13.45], [-30.8, 14.78], [-31.1, 15.72], [-31.67, 16.72], [-32.7, 17.33], [-33.47, 17.8], [-34.02, 17.92], [-34.18, 17.85], [-35.07, 18.88], [-35.58, 20.13], [-36.63, 20.97], [-36.77, 22.5], [-37.7, 23.68], [-38.58, 25.07], [-39.08, 26.9], [-38.65, 29.07], [-36.77, 33.47], [-35.27, 36.67], [-33.82, 38.72], [-33.23, 40.78], [-31.17, 43.2], [-28.88, 44.77], [-27.17, 45.77], [-28.32, 46.87], [-31.35, 47.07], [-32.45, 47.5], [-32.88, 47.77], [-31.7, 47.88], [-28.43, 48.73], [-24.2, 48.87], [-20.27, 48.55], [-16.0, 48.15], [-11.32, 49.03], [-10.07, 49.08], [-6.5, 49.35], [-4.17, 49.82]]}}, {"type": "Feature", "properties": {"ship": "Essex", "company": "Royal Navy", "power": "uk", "date_start": "1785-01-14", "date_end": "1785-07-02", "FromYear": 1785, "ToYear": 1785, "size": 3134}, "geometry": {"type": "LineString", "coordinates": [[-5.3, 49.17], [-7.52, 48.38], [-9.68, 48.1], [-11.02, 48.27], [-11.52, 47.88], [-11.12, 46.8], [-11.05, 47.17], [-10.88, 47.3], [-12.28, 48.42], [-12.93, 49.5], [-13.25, 49.97], [-14.33, 48.93], [-14.8, 46.95], [-15.07, 44.62], [-15.3, 42.8], [-15.3, 42.05], [-15.62, 40.62], [-16.38, 38.38], [-16.55, 37.0], [-16.73, 35.62], [-17.4, 33.37], [-17.6, 31.47], [-17.6, 29.52], [-19.87, 26.55], [-20.43, 25.18], [-21.48, 24.13], [-21.7, 23.53], [-21.37, 21.5], [-20.03, 19.5], [-22.5, 17.12], [-24.3, 17.07], [-25.18, 15.15], [-25.47, 13.22], [-24.67, 11.47], [-23.46, 9.4], [-21.49, 7.18], [-21.49, 5.52], [-21.02, 4.38], [-20.21, 2.67], [-20.31, 2.3], [-20.26, 2.2], [-20.32, 2.07], [-20.32, 1.93], [-20.32, 1.9], [-20.32, 1.7], [-20.52, 1.65], [-20.62, 2.05], [-20.81, 1.43], [-20.91, 1.05], [-21.48, 0.17], [-22.0, -0.88], [-22.42, -2.1], [-22.73, -2.92], [-23.95, -4.57], [-25.05, -6.07], [-25.55, -7.43], [-28.12, -9.53], [-28.82, -11.47], [-27.4, -12.85], [-28.35, -14.03], [-28.28, -15.73], [-27.7, -17.4], [-28.0, -18.35], [-28.12, -18.52], [-28.23, -18.98], [-29.03, -20.08], [-30.47, -21.42], [-30.47, -22.25], [-30.73, -22.92], [-30.1, -23.75], [-28.95, -24.95], [-27.47, -26.0], [-25.78, -27.12], [-23.35, -28.77], [-20.93, -29.92], [-19.5, -29.9], [-19.92, -30.43], [-19.22, -32.02], [-17.23, -32.93], [-16.18, -32.9], [-16.83, -33.73], [-16.72, -34.57], [-10.9, -35.53], [-8.13, -34.9], [-5.25, -34.75], [-3.07, -34.98], [-0.07, -35.0], [1.32, -34.33], [1.87, -34.93], [5.43, -35.52], [8.98, -35.73], [11.52, -35.5], [13.48, -35.25], [17.9, -34.28], [18.45, -35.0], [20.37, -35.97], [20.92, -36.17], [26.25, -36.85], [29.5, -36.75], [32.97, -35.73], [35.08, -34.97], [34.98, -34.6], [37.02, -32.67], [38.23, -30.15], [38.13, -29.38], [39.12, -29.55], [39.02, -28.77], [38.7, -27.3], [38.7, -26.0], [39.33, -24.63], [38.9, -25.02], [38.68, -25.75], [37.28, -24.78], [38.93, -25.0], [39.62, -24.2], [40.43, -24.55], [42.2, -24.22], [43.05, -24.15], [43.21, -23.57], [42.59, -22.37], [42.71, -20.38], [42.94, -18.22], [43.16, -16.78], [43.67, -15.6], [44.06, -14.78], [44.54, -13.5], [44.7, -12.17], [46.83, -7.82], [48.55, -5.97], [50.08, -4.82], [51.53, -3.32], [53.63, -1.85], [55.4, -0.82], [57.15, -0.45], [58.35, 0.75], [59.5, 1.62], [60.22, 2.82], [61.15, 4.12], [62.57, 4.73], [64.67, 5.98], [66.55, 7.33], [69.37, 8.4], [74.12, 7.95], [77.14, 6.8], [79.24, 5.78], [80.51, 5.77], [81.89, 6.67], [81.97, 8.13], [82.08, 9.88], [79.85, 12.02]]}}, {"type": "Feature", "properties": {"ship": "Chatham", "company": "Royal Navy", "power": "uk", "date_start": "1760-06-08", "date_end": "1761-01-17", "FromYear": 1760, "ToYear": 1761, "size": 3176}, "geometry": {"type": "LineString", "coordinates": [[-8.2, 48.9], [-10.45, 48.1], [-12.9, 47.22], [-14.15, 46.62], [-15.68, 42.43], [-15.45, 40.67], [-15.85, 38.93], [-16.25, 38.03], [-16.53, 36.37], [-16.88, 34.37], [-16.47, 33.32], [-18.71, 27.25], [-19.18, 24.9], [-19.78, 22.72], [-20.23, 21.2], [-20.76, 19.42], [-21.2, 18.07], [-22.11, 16.27], [-23.13, 14.96], [-23.21, 14.62], [-23.25, 14.5], [-23.18, 14.15], [-23.32, 13.37], [-23.54, 12.58], [-23.06, 10.65], [-21.91, 9.33], [-23.31, 9.2], [-22.82, 7.98], [-20.99, 7.2], [-20.42, 7.2], [-20.19, 6.77], [-18.51, 6.37], [-21.72, 6.1], [-20.16, 5.53], [-19.46, 5.03], [-20.69, 4.58], [-18.96, 3.97], [-19.99, 3.0], [-21.06, 1.45], [-22.01, 0.58], [-25.01, -1.17], [-25.81, -2.87], [-25.74, -5.07], [-26.06, -6.9], [-27.31, -8.88], [-28.27, -10.55], [-28.39, -11.98], [-28.56, -13.53], [-29.16, -14.32], [-26.94, -15.48], [-28.02, -16.82], [-27.37, -17.8], [-27.37, -18.42], [-28.44, -19.75], [-28.11, -21.75], [-27.36, -22.37], [-26.47, -22.77], [-25.27, -22.98], [-26.64, -24.03], [-27.74, -26.17], [-27.26, -28.37], [-22.77, -31.38], [-19.31, -32.93], [-16.81, -33.93], [-15.54, -34.98], [-12.71, -35.33], [-9.57, -34.82], [-7.16, -34.8], [-2.01, -36.32], [-0.39, -36.8], [1.16, -36.83], [1.93, -36.5], [2.19, -36.58], [2.78, -36.58], [4.26, -36.2], [10.16, -35.03], [11.89, -35.15], [12.48, -34.95], [14.48, -35.05], [16.38, -35.22], [19.98, -34.97], [21.65, -35.2], [22.53, -35.8], [24.72, -36.28], [28.7, -36.05], [30.53, -34.78], [30.5, -34.85], [31.38, -34.35], [35.07, -33.07], [39.37, -31.2], [40.43, -30.45], [41.15, -30.8], [42.9, -30.62], [44.63, -28.4], [46.43, -27.22], [46.33, -26.03], [47.5, -25.65], [48.08, -25.45], [48.67, -24.57], [49.25, -24.08], [50.47, -22.65], [50.77, -22.8], [50.9, -23.8], [52.15, -25.95], [53.35, -26.87], [53.58, -28.0], [54.93, -29.3], [57.27, -29.97], [60.53, -30.13], [62.77, -30.2], [67.17, -31.07], [69.68, -31.02], [71.17, -30.35], [71.98, -29.92], [72.87, -29.4], [73.55, -29.03], [74.07, -28.83], [74.32, -28.28], [74.77, -26.52], [75.03, -26.37], [75.63, -26.2], [75.7, -26.05], [75.47, -24.8], [75.68, -22.93], [76.07, -20.45], [78.27, -16.15], [79.17, -14.52], [79.63, -13.67], [80.02, -13.08], [80.45, -12.28], [80.97, -11.48], [81.58, -9.77], [82.45, -7.12], [84.48, -5.32], [86.65, -3.3], [88.58, -1.5], [89.38, 0.78], [84.95, 8.62], [83.9, 8.1], [82.7, 7.0], [82.0, 6.68], [81.46, 6.1], [80.49, 5.87], [79.73, 5.7], [79.73, 5.83], [79.59, 5.72], [79.39, 5.75], [79.34, 5.7], [78.79, 5.87], [78.21, 5.83]]}}, {"type": "Feature", "properties": {"ship": "Calcutta", "company": "EIC", "power": "uk", "date_start": "1804-03-11", "date_end": "1804-10-07", "FromYear": 1804, "ToYear": 1804, "size": 3160}, "geometry": {"type": "LineString", "coordinates": [[88.82, 20.68], [90.03, 19.52], [89.7, 18.75], [90.17, 17.62], [90.5, 16.7], [90.83, 15.93], [90.75, 14.05], [90.78, 13.62], [90.53, 13.1], [89.42, 12.73], [90.63, 12.45], [90.07, 12.42], [90.15, 12.12], [89.83, 11.78], [90.0, 11.4], [88.45, 11.07], [90.62, 10.47], [88.47, 10.1], [91.07, 9.33], [90.7, 9.25], [90.25, 8.72], [90.08, 7.77], [90.0, 6.78], [89.6, 5.53], [89.5, 4.23], [87.35, 3.02], [90.65, 1.85], [89.43, 0.0], [93.38, -1.0], [94.13, -2.53], [88.48, -3.93], [94.78, -5.73], [95.32, -6.7], [87.73, -8.48], [95.42, -9.42], [95.03, -10.53], [92.2, -11.8], [94.77, -12.43], [91.5, -14.23], [89.6, -15.33], [87.35, -16.65], [85.22, -17.5], [82.45, -18.67], [79.5, -19.33], [77.2, -19.88], [74.98, -20.32], [72.85, -20.93], [70.62, -21.87], [58.02, -22.9], [62.83, -23.32], [60.3, -24.55], [57.13, -24.55], [53.98, -25.38], [51.8, -25.63], [49.43, -26.47], [47.53, -26.6], [46.67, -27.4], [45.75, -27.48], [43.97, -27.23], [42.25, -28.45], [38.33, -29.02], [36.05, -30.53], [33.35, -31.82], [31.55, -33.17], [30.37, -33.17], [28.92, -34.45], [28.88, -34.85], [25.88, -35.97], [25.17, -36.58], [23.38, -37.17], [24.82, -38.08], [23.7, -37.58], [24.38, -36.97], [24.25, -37.1], [23.75, -37.23], [20.37, -36.93], [21.0, -36.83], [19.3, -37.05], [17.8, -35.13], [19.0, -35.48], [16.2, -35.18], [15.63, -34.7], [15.18, -34.72], [15.38, -35.07], [13.73, -34.38], [14.62, -34.03], [14.2, -33.57], [13.25, -32.9], [13.05, -31.67], [12.25, -30.42], [10.77, -29.67], [11.0, -27.63], [10.13, -26.5], [7.82, -25.03], [5.72, -23.8], [4.53, -22.62], [2.87, -21.2], [1.2, -20.27], [-0.67, -18.78], [-2.33, -17.35], [-7.07, -14.83], [-8.2, -13.9], [-12.27, -11.22], [-13.42, -10.1], [-15.33, -8.72], [-16.4, -6.97], [-17.47, -4.92], [-17.65, -3.0], [-18.1, -0.82], [-18.97, 1.45], [-20.0, 3.13], [-21.03, 4.9], [-21.3, 8.08], [-22.27, 9.8], [-23.02, 10.38], [-23.62, 11.52], [-23.5, 12.03], [-24.1, 12.15], [-25.25, 12.48], [-25.43, 13.8], [-25.97, 15.0], [-26.23, 15.93], [-26.87, 16.77], [-29.43, 19.78], [-30.75, 21.48], [-31.55, 22.57], [-32.17, 24.33], [-32.37, 25.9], [-32.75, 26.93], [-33.68, 28.12], [-33.15, 29.15], [-31.02, 30.32], [-29.67, 31.08], [-28.1, 32.45], [-28.25, 34.52], [-29.4, 34.82], [-29.28, 35.08], [-30.75, 35.68], [-31.68, 36.62], [-32.72, 38.75], [-32.15, 39.33], [-29.75, 39.43], [-27.33, 40.82], [-25.15, 41.92], [-20.85, 43.73], [-18.22, 44.95], [-14.97, 46.23], [-11.33, 47.6], [-8.5, 49.02], [-5.53, 49.67]]}}, {"type": "Feature", "properties": {"ship": "Dover Castle", "company": "EIC", "power": "uk", "date_start": "1806-06-13", "date_end": "1807-01-17", "FromYear": 1806, "ToYear": 1807, "size": 2689}, "geometry": {"type": "LineString", "coordinates": [[-5.83, 49.3], [-7.77, 47.98], [-9.52, 46.13], [-13.47, 41.38], [-13.35, 38.3], [-13.43, 36.83], [-13.6, 36.23], [-14.02, 35.52], [-14.72, 35.05], [-15.18, 34.1], [-15.35, 33.95], [-15.73, 33.32], [-17.38, 32.5], [-18.4, 29.15], [-19.85, 26.97], [-21.2, 24.92], [-22.65, 22.5], [-24.9, 18.62], [-25.52, 17.25], [-25.52, 16.32], [-25.67, 15.22], [-25.52, 13.05], [-24.35, 10.42], [-24.28, 9.9], [-24.17, 9.4], [-24.0, 9.05], [-23.57, 8.6], [-21.03, 8.65], [-19.8, 7.85], [-18.5, 7.07], [-16.58, 6.43], [-15.05, 6.47], [-11.95, 6.28], [-11.05, 6.17], [-9.95, 5.32], [-9.33, 4.95], [-8.7, 4.53], [-4.63, 3.58], [-2.88, 3.05], [-1.7, 2.88], [-1.57, 2.32], [2.67, 0.08], [4.03, -0.85], [4.85, -1.37], [5.23, -1.47], [6.07, -1.55], [8.52, -2.22], [8.38, -2.98], [7.88, -3.33], [8.28, -3.68], [9.17, -4.18], [6.92, -4.68], [8.0, -5.25], [8.57, -5.25], [7.65, -5.33], [6.48, -5.82], [3.83, -7.32], [2.73, -8.1], [1.58, -8.4], [0.28, -9.53], [-0.65, -11.15], [-3.03, -14.65], [-6.77, -16.87], [-7.95, -17.8], [-9.43, -18.67], [-11.5, -22.22], [-12.13, -23.67], [-12.6, -24.0], [-13.58, -24.75], [-14.47, -26.25], [-15.05, -30.95], [-12.78, -32.8], [-9.2, -33.67], [-5.73, -34.37], [-2.87, -35.07], [-0.5, -35.83], [2.53, -35.97], [5.9, -35.87], [8.65, -36.05], [11.88, -35.92], [15.3, -35.48], [15.85, -36.2], [17.82, -34.82], [17.1, -36.13], [16.73, -35.88], [17.5, -35.65], [16.45, -36.3], [16.17, -37.13], [16.17, -37.28], [19.47, -35.63], [18.55, -36.97], [19.47, -37.02], [22.43, -37.27], [23.48, -37.32], [28.33, -37.58], [28.5, -38.67], [29.97, -38.42], [31.13, -38.67], [31.43, -39.82], [36.57, -39.63], [37.58, -39.22], [39.33, -39.62], [41.65, -39.83], [45.23, -39.83], [53.23, -39.1], [55.63, -39.75], [59.6, -39.53], [62.58, -39.2], [66.92, -38.77], [72.93, -36.87], [75.47, -35.83], [76.38, -35.37], [78.35, -35.37], [82.95, -34.35], [84.35, -33.88], [85.15, -33.3], [86.32, -32.68], [87.7, -30.0], [89.07, -23.87], [89.45, -20.35], [89.9, -16.97], [90.25, -13.2], [90.25, -10.28], [90.0, -8.15], [89.83, -7.67], [89.33, -7.05], [90.22, -5.42], [92.28, -3.22], [93.17, -0.98], [93.77, 2.03], [93.97, 2.12], [94.2, 2.75], [94.2, 2.97], [94.57, 3.7], [94.93, 3.83], [94.97, 3.65], [95.47, 4.1], [95.05, 5.02], [93.48, 6.05], [92.0, 7.67], [90.83, 8.82], [90.1, 10.02], [87.62, 13.0], [86.68, 14.55], [85.65, 16.0], [84.87, 17.47], [84.95, 18.13], [85.47, 18.9], [86.17, 19.65], [87.43, 20.23]]}}, {"type": "Feature", "properties": {"ship": "Kent", "company": "EIC", "power": "uk", "date_start": "1785-12-23", "date_end": "1786-07-20", "FromYear": 1785, "ToYear": 1786, "size": 2773}, "geometry": {"type": "LineString", "coordinates": [[-6.9, 48.78], [-9.43, 47.12], [-10.73, 45.78], [-12.52, 44.03], [-14.18, 41.87], [-15.92, 37.62], [-16.25, 35.68], [-16.25, 33.68], [-16.55, 33.18], [-15.7, 33.5], [-15.33, 32.97], [-16.2, 31.77], [-17.77, 31.42], [-18.07, 31.32], [-18.88, 31.2], [-19.1, 29.7], [-19.42, 28.6], [-20.72, 26.5], [-20.93, 25.03], [-21.4, 24.22], [-22.3, 22.85], [-24.95, 18.85], [-26.05, 16.62], [-25.82, 13.88], [-24.75, 11.77], [-23.63, 9.43], [-22.45, 7.73], [-21.4, 6.27], [-20.57, 4.93], [-20.4, 4.55], [-20.17, 3.98], [-21.05, 3.22], [-20.58, 2.23], [-21.52, 1.32], [-22.3, 0.9], [-22.7, 0.77], [-23.55, 0.4], [-24.18, -0.33], [-25.48, -2.22], [-26.5, -3.57], [-26.92, -5.33], [-27.53, -7.1], [-28.08, -8.77], [-28.58, -10.27], [-29.22, -11.67], [-29.42, -13.18], [-29.3, -17.0], [-29.05, -18.8], [-28.95, -20.55], [-28.52, -22.0], [-28.07, -23.52], [-27.18, -25.25], [-25.77, -26.63], [-24.88, -27.95], [-22.78, -29.63], [-22.55, -30.05], [-22.43, -30.0], [-21.58, -29.9], [-19.22, -29.58], [-16.68, -29.73], [-14.5, -28.6], [-14.27, -28.67], [-13.78, -28.28], [-13.1, -27.92], [-13.25, -28.05], [-12.92, -28.08], [-12.25, -27.95], [-11.13, -28.0], [-10.0, -28.15], [-9.28, -28.07], [-8.85, -28.03], [-6.43, -28.37], [-5.22, -28.55], [-4.83, -27.95], [-4.03, -28.67], [-2.9, -29.08], [-2.58, -28.47], [-2.45, -27.17], [-2.15, -25.62], [-2.03, -23.03], [-2.03, -22.15], [-1.57, -21.07], [-1.22, -19.95], [-1.07, -19.63], [-0.72, -19.3], [-0.17, -19.0], [-0.03, -18.77], [0.38, -16.23], [-1.27, -15.98], [-6.22, -16.95], [-6.72, -18.78], [-7.27, -20.93], [-8.37, -22.62], [-9.25, -23.62], [-9.55, -24.72], [-9.55, -26.27], [-9.42, -27.33], [-7.7, -28.23], [-4.97, -29.48], [-3.23, -29.4], [-3.13, -29.53], [-1.77, -31.1], [-0.15, -32.27], [1.65, -33.08], [2.83, -34.22], [3.35, -34.63], [5.25, -35.07], [7.15, -35.38], [7.85, -36.47], [9.02, -37.05], [12.53, -36.72], [15.98, -36.07], [22.23, -35.72], [24.13, -36.18], [26.57, -36.53], [27.87, -36.28], [29.82, -36.58], [33.5, -36.5], [35.53, -36.53], [38.63, -36.85], [42.67, -36.78], [49.42, -36.78], [51.5, -36.77], [51.92, -36.85], [51.62, -37.98], [51.02, -39.22], [53.53, -39.72], [55.53, -39.65], [58.27, -38.87], [63.38, -37.93], [67.37, -37.8], [71.53, -37.72], [73.35, -38.38], [77.5, -37.22], [81.91, -36.7], [85.76, -35.75], [89.15, -34.1], [93.93, -32.12], [95.46, -32.0], [97.06, -31.0], [97.62, -28.3], [98.17, -26.62], [98.62, -24.78], [99.17, -22.77], [100.27, -20.57], [104.19, -16.5], [105.75, -13.68], [107.17, -10.68], [107.87, -7.93], [106.0, -7.57]]}}, {"type": "Feature", "properties": {"ship": "Clive", "company": "EIC", "power": "uk", "date_start": "1772-04-18", "date_end": "1772-10-25", "FromYear": 1772, "ToYear": 1772, "size": 2636}, "geometry": {"type": "LineString", "coordinates": [[89.48, 19.98], [89.45, 19.98], [89.23, 19.2], [89.18, 17.62], [89.17, 17.37], [90.15, 16.58], [90.18, 16.38], [90.37, 15.68], [90.47, 15.22], [90.47, 15.13], [90.33, 14.97], [89.8, 14.23], [89.73, 14.0], [89.62, 13.8], [89.27, 13.03], [88.87, 12.05], [88.83, 11.93], [89.15, 11.62], [89.95, 11.03], [90.4, 10.42], [90.8, 10.0], [90.6, 9.88], [90.0, 10.0], [89.78, 9.5], [90.05, 8.33], [90.05, 4.47], [89.63, 2.23], [89.47, 1.47], [89.38, 0.65], [89.45, -0.42], [89.7, -1.0], [89.53, -1.37], [89.38, -1.52], [89.3, -1.67], [89.53, -2.28], [89.2, -3.7], [89.02, -4.62], [88.85, -5.57], [88.83, -5.72], [88.67, -5.88], [87.92, -6.55], [86.0, -8.03], [83.87, -9.08], [82.28, -10.55], [80.42, -12.22], [76.5, -15.93], [74.2, -17.55], [72.23, -18.83], [70.9, -19.67], [68.77, -20.82], [66.87, -21.4], [63.63, -21.62], [63.82, -21.83], [62.07, -22.92], [60.47, -24.0], [58.37, -24.82], [57.07, -24.58], [55.55, -24.88], [54.25, -25.95], [53.83, -27.22], [50.78, -28.5], [49.54, -29.07], [49.12, -28.9], [47.89, -29.08], [45.54, -29.83], [40.78, -30.87], [39.1, -31.17], [37.45, -31.03], [36.47, -30.97], [35.42, -31.67], [32.31, -32.43], [29.78, -33.33], [28.47, -33.48], [27.87, -33.7], [26.94, -34.4], [27.19, -34.93], [27.24, -35.05], [27.56, -35.45], [27.33, -35.1], [26.9, -34.5], [24.35, -34.73], [23.79, -34.72], [23.44, -34.43], [23.05, -34.52], [22.53, -34.8], [16.9, -34.83], [14.92, -32.17], [14.37, -31.33], [14.37, -30.73], [13.8, -29.92], [12.88, -28.87], [11.18, -26.78], [9.45, -24.87], [8.93, -24.2], [8.15, -22.95], [6.55, -20.57], [5.18, -19.07], [3.75, -17.75], [3.07, -16.9], [2.27, -15.95], [-0.52, -16.0], [-2.65, -16.0], [-5.5, -14.45], [-6.88, -13.32], [-7.97, -12.23], [-10.65, -8.58], [-12.23, -6.87], [-13.73, -5.45], [-14.82, -4.15], [-16.0, -2.73], [-16.95, -1.6], [-17.9, 0.03], [-18.63, 1.58], [-19.53, 3.23], [-20.32, 4.73], [-21.03, 6.55], [-21.32, 7.8], [-21.28, 9.1], [-21.22, 9.47], [-21.32, 9.6], [-22.7, 9.73], [-22.88, 11.4], [-22.98, 12.93], [-22.88, 13.92], [-22.92, 14.23], [-23.13, 15.5], [-23.28, 16.25], [-23.48, 18.0], [-24.22, 20.0], [-25.32, 22.05], [-26.37, 24.18], [-26.15, 25.93], [-25.38, 27.42], [-25.03, 28.2], [-24.38, 29.37], [-23.63, 31.03], [-23.05, 32.38], [-23.82, 33.35], [-23.13, 35.2], [-22.35, 36.83], [-20.65, 39.57], [-18.75, 41.83], [-17.88, 42.13], [-16.75, 44.18], [-14.88, 46.55], [-10.02, 49.33], [-6.57, 49.45], [-5.53, 49.68], [-5.07, 49.58], [-3.33, 49.37]]}}, {"type": "Feature", "properties": {"ship": "York", "company": "EIC", "power": "uk", "date_start": "1777-05-06", "date_end": "1777-10-31", "FromYear": 1777, "ToYear": 1777, "size": 2854}, "geometry": {"type": "LineString", "coordinates": [[-4.25, 50.0], [-3.88, 49.87], [-5.15, 49.37], [-6.95, 48.73], [-8.52, 47.78], [-12.47, 43.78], [-13.97, 42.33], [-15.88, 40.1], [-17.7, 37.7], [-19.65, 35.2], [-20.95, 33.47], [-19.15, 31.75], [-20.1, 29.95], [-22.57, 26.17], [-24.28, 23.72], [-25.37, 21.13], [-26.3, 18.28], [-26.9, 15.73], [-25.65, 13.27], [-24.58, 12.0], [-22.72, 10.17], [-19.87, 7.8], [-18.58, 6.63], [-18.12, 6.55], [-17.75, 6.72], [-17.4, 6.1], [-17.78, 5.52], [-18.62, 4.82], [-19.35, 4.43], [-21.22, 2.68], [-21.75, 1.87], [-22.37, 0.68], [-23.02, -0.97], [-23.75, -2.33], [-24.88, -3.62], [-26.07, -5.33], [-26.4, -6.95], [-26.98, -8.67], [-28.77, -12.43], [-29.68, -14.38], [-29.97, -16.33], [-29.15, -17.92], [-28.37, -18.78], [-27.85, -18.88], [-27.73, -19.42], [-27.3, -20.15], [-26.02, -19.37], [-25.63, -19.95], [-25.88, -20.2], [-24.17, -20.02], [-22.72, -19.4], [-23.6, -20.7], [-24.13, -22.33], [-23.8, -24.17], [-23.6, -27.63], [-22.58, -29.17], [-20.37, -31.08], [-18.27, -32.12], [-15.9, -33.32], [-13.45, -34.28], [-12.53, -34.35], [-10.95, -33.32], [-10.28, -34.1], [-4.08, -35.35], [-1.23, -35.15], [1.92, -34.77], [4.15, -34.83], [6.55, -34.93], [8.63, -34.93], [10.28, -34.77], [10.63, -35.48], [12.53, -35.78], [13.17, -34.82], [13.75, -35.18], [14.62, -34.88], [15.97, -35.25], [18.15, -35.22], [19.83, -35.17], [20.48, -35.13], [22.25, -36.03], [24.77, -36.32], [26.32, -35.78], [26.48, -35.8], [27.22, -36.57], [27.75, -36.63], [28.4, -36.07], [29.5, -36.8], [31.73, -35.52], [33.93, -34.8], [36.28, -34.3], [37.73, -33.87], [37.63, -32.48], [37.33, -32.57], [36.0, -32.35], [36.15, -32.48], [36.7, -31.58], [37.58, -27.0], [37.73, -25.1], [37.9, -23.75], [37.9, -22.63], [37.93, -21.68], [39.13, -19.87], [41.03, -18.9], [41.48, -17.97], [41.58, -17.08], [41.47, -16.33], [40.33, -16.33], [41.02, -16.67], [41.77, -16.88], [41.77, -16.05], [45.03, -15.37], [42.22, -14.17], [43.43, -13.6], [43.5, -13.77], [43.55, -13.65], [44.17, -13.12], [46.6, -9.38], [47.52, -8.12], [48.62, -7.02], [50.38, -5.97], [50.65, -5.68], [52.73, -4.1], [54.12, -3.17], [55.53, -1.95], [56.98, -1.2], [58.18, -0.45], [59.13, 1.17], [59.92, 0.7], [60.47, 0.98], [61.7, 1.4], [62.33, 1.72], [63.25, 2.38], [64.07, 3.02], [64.42, 3.4], [64.47, 3.37], [64.97, 3.88], [65.97, 4.78], [67.4, 6.3], [67.82, 6.77], [68.17, 7.47], [68.82, 8.35], [69.3, 9.07], [69.8, 9.33], [70.72, 9.57], [71.93, 9.6], [73.47, 9.57], [73.62, 9.47], [73.93, 9.63], [74.73, 9.73], [75.57, 9.55]]}}, {"type": "Feature", "properties": {"ship": "Lord Walsingham", "company": "EIC", "power": "uk", "date_start": "1788-05-22", "date_end": "1788-10-29", "FromYear": 1788, "ToYear": 1788, "size": 2727}, "geometry": {"type": "LineString", "coordinates": [[103.03, -7.55], [101.9, -8.67], [101.48, -9.23], [99.68, -10.2], [97.13, -11.38], [95.25, -11.95], [92.5, -12.87], [89.72, -13.85], [86.95, -14.82], [84.58, -15.55], [82.07, -16.35], [79.52, -17.38], [77.25, -18.3], [75.52, -19.2], [73.62, -19.77], [71.07, -20.57], [68.8, -21.52], [66.87, -22.5], [65.77, -22.87], [64.22, -23.02], [62.65, -23.28], [61.08, -23.97], [60.45, -24.38], [59.9, -24.5], [59.0, -25.15], [57.68, -25.93], [54.98, -26.02], [52.73, -26.55], [51.05, -27.32], [49.5, -28.07], [47.03, -28.92], [44.8, -29.87], [43.37, -30.33], [40.53, -31.17], [37.67, -31.92], [34.52, -33.1], [33.33, -33.58], [31.83, -33.92], [28.47, -34.75], [26.77, -35.13], [26.63, -34.33], [25.67, -34.63], [25.12, -34.18], [24.23, -34.82], [22.92, -35.2], [22.53, -35.02], [22.07, -35.12], [22.28, -35.38], [21.33, -35.32], [20.35, -35.4], [19.36, -35.1], [18.37, -34.43], [17.38, -35.18], [17.5, -35.97], [16.85, -35.17], [16.48, -34.9], [15.52, -33.88], [14.37, -33.12], [13.67, -32.72], [13.62, -31.9], [13.48, -30.92], [13.62, -30.17], [13.63, -29.27], [12.88, -28.9], [11.58, -27.75], [10.15, -26.42], [8.37, -24.68], [7.23, -23.67], [7.15, -23.2], [5.4, -21.85], [4.07, -20.33], [3.22, -18.88], [2.37, -17.93], [1.87, -17.15], [1.27, -16.38], [-1.17, -15.93], [-2.63, -15.93], [-3.5, -15.88], [-4.97, -15.88], [-6.4, -15.17], [-7.33, -13.83], [-8.32, -12.55], [-9.25, -11.38], [-10.37, -9.82], [-11.68, -7.98], [-12.73, -6.53], [-13.82, -5.6], [-14.87, -4.67], [-16.05, -3.15], [-17.35, -1.48], [-18.25, -0.05], [-19.18, 1.47], [-22.0, 2.78], [-22.33, 4.35], [-22.72, 6.65], [-23.02, 8.68], [-23.15, 9.92], [-22.8, 10.68], [-23.07, 11.17], [-23.97, 11.5], [-23.52, 11.57], [-23.27, 11.72], [-23.8, 11.85], [-24.97, 12.32], [-26.17, 12.93], [-27.3, 14.05], [-29.0, 14.9], [-30.3, 16.35], [-31.7, 18.17], [-32.85, 19.8], [-33.57, 21.1], [-34.67, 22.62], [-35.83, 24.3], [-37.05, 25.83], [-37.63, 27.07], [-38.02, 28.1], [-38.55, 28.72], [-39.07, 29.52], [-39.95, 30.68], [-39.28, 31.87], [-39.17, 33.67], [-38.95, 35.65], [-38.95, 37.38], [-38.43, 38.18], [-37.22, 39.22], [-36.42, 39.52], [-35.05, 41.33], [-33.45, 42.07], [-35.18, 42.55], [-36.85, 43.67], [-35.77, 43.0], [-35.22, 43.9], [-35.13, 43.95], [-35.05, 45.57], [-34.23, 46.15], [-30.47, 46.8], [-26.43, 47.35], [-23.68, 47.77], [-22.42, 48.33], [-19.92, 49.27], [-17.23, 49.37], [-14.62, 49.37], [-12.67, 49.58], [-12.25, 50.17], [-10.82, 49.75], [-9.15, 49.15], [-8.45, 49.17], [-8.02, 49.1], [-7.57, 49.37], [-7.3, 49.68]]}}, {"type": "Feature", "properties": {"ship": "Tilbury", "company": "EIC", "power": "uk", "date_start": "1768-02-03", "date_end": "1768-08-14", "FromYear": 1768, "ToYear": 1768, "size": 2668}, "geometry": {"type": "LineString", "coordinates": [[-8.33, 47.85], [-11.02, 46.68], [-13.02, 44.2], [-14.42, 41.62], [-16.32, 40.13], [-17.65, 40.03], [-19.1, 40.53], [-19.17, 40.8], [-18.33, 39.82], [-18.1, 40.48], [-17.8, 40.8], [-17.02, 40.43], [-15.63, 40.1], [-15.02, 38.98], [-14.42, 37.02], [-14.9, 35.33], [-14.95, 35.13], [-15.45, 34.03], [-15.23, 33.7], [-15.75, 32.65], [-16.68, 31.05], [-18.07, 28.72], [-19.58, 26.77], [-20.97, 26.1], [-21.57, 25.0], [-22.1, 23.92], [-22.45, 23.48], [-23.5, 23.27], [-23.63, 22.28], [-23.38, 19.62], [-24.0, 17.85], [-21.92, 14.93], [-20.75, 13.23], [-19.75, 10.93], [-18.87, 8.88], [-18.22, 7.0], [-18.1, 6.18], [-18.22, 5.93], [-18.12, 5.53], [-18.05, 4.77], [-17.97, 4.37], [-19.28, 2.3], [-19.98, 1.27], [-20.92, 0.3], [-21.57, -0.68], [-22.2, -2.38], [-23.3, -4.07], [-24.9, -5.73], [-25.68, -7.57], [-26.35, -9.47], [-26.82, -11.33], [-27.38, -13.23], [-28.05, -17.12], [-28.05, -19.13], [-28.6, -20.45], [-28.25, -23.5], [-27.28, -25.22], [-24.96, -26.3], [-23.48, -26.47], [-22.0, -27.1], [-20.1, -27.8], [-17.36, -28.43], [-14.88, -28.48], [-12.85, -28.38], [-10.11, -25.97], [-11.08, -27.1], [-12.03, -27.75], [-11.18, -27.45], [-10.11, -26.73], [-10.41, -26.93], [-10.96, -28.02], [-11.08, -29.27], [-10.03, -29.67], [-8.15, -30.12], [-4.93, -30.02], [-1.23, -28.52], [-1.1, -27.38], [0.34, -26.3], [1.1, -25.92], [1.15, -24.97], [0.79, -22.32], [1.1, -19.87], [1.27, -18.15], [1.4, -17.18], [1.2, -16.07], [0.22, -16.08], [-0.63, -16.12], [-2.56, -16.18], [-4.88, -16.08], [-6.73, -17.03], [-8.42, -18.35], [-9.37, -19.48], [-9.6, -20.38], [-9.42, -21.2], [-9.33, -22.08], [-9.67, -22.57], [-10.45, -23.4], [-11.02, -25.12], [-10.4, -27.28], [-9.42, -28.7], [-7.48, -30.53], [-5.67, -31.47], [-3.15, -33.05], [-1.55, -34.13], [-2.0, -33.9], [-0.22, -33.27], [1.25, -32.75], [2.08, -32.27], [2.5, -33.8], [7.83, -35.32], [10.23, -36.45], [14.18, -37.0], [17.42, -36.1], [18.77, -36.22], [19.9, -36.4], [23.48, -36.0], [27.33, -36.67], [30.23, -36.73], [32.35, -36.77], [36.33, -36.7], [40.42, -36.68], [44.83, -37.02], [48.43, -38.9], [51.57, -38.85], [55.2, -38.4], [59.88, -37.92], [63.62, -37.73], [67.2, -37.73], [69.53, -37.97], [73.9, -37.6], [77.03, -37.53], [77.87, -37.17], [82.79, -37.22], [87.29, -36.37], [91.69, -36.38], [95.12, -35.72], [97.47, -33.2], [97.67, -30.62], [99.17, -29.63], [100.55, -28.9], [102.24, -28.12], [103.24, -27.55], [105.39, -27.3], [106.47, -24.9], [107.59, -20.28], [107.69, -19.0], [107.9, -16.38], [108.59, -13.95], [109.04, -12.0], [104.99, -9.78]]}}, {"type": "Feature", "properties": {"ship": "Tilbury", "company": "EIC", "power": "uk", "date_start": "1762-12-28", "date_end": "1763-06-27", "FromYear": 1762, "ToYear": 1763, "size": 3113}, "geometry": {"type": "LineString", "coordinates": [[88.21, 18.78], [88.75, 16.38], [88.83, 15.52], [88.91, 14.85], [88.98, 13.6], [88.98, 11.92], [89.55, 7.65], [89.55, 6.03], [89.55, 4.52], [89.55, 3.32], [89.55, 2.37], [89.55, 0.8], [89.71, -1.03], [89.75, -3.18], [89.7, -5.12], [89.61, -6.67], [89.53, -7.57], [89.23, -8.33], [88.63, -9.37], [87.48, -10.28], [86.66, -10.93], [86.33, -11.27], [85.78, -12.38], [85.05, -13.08], [83.68, -14.65], [82.25, -16.15], [80.8, -17.12], [77.35, -19.7], [74.85, -21.2], [73.01, -21.67], [71.36, -21.82], [70.0, -22.03], [68.65, -22.5], [66.46, -22.9], [64.83, -23.4], [62.73, -24.12], [60.96, -24.73], [59.73, -25.02], [56.76, -26.83], [54.68, -28.07], [53.45, -28.85], [52.33, -29.07], [49.3, -30.33], [48.31, -31.03], [47.01, -31.85], [45.11, -33.5], [43.55, -33.07], [41.61, -34.43], [40.2, -34.77], [37.5, -35.5], [34.81, -36.35], [33.88, -36.58], [33.93, -35.67], [32.96, -36.15], [31.7, -36.6], [30.06, -37.33], [28.3, -37.62], [25.53, -37.73], [23.6, -37.9], [16.26, -38.25], [15.47, -38.88], [13.77, -37.92], [15.76, -38.03], [15.57, -37.8], [14.37, -37.72], [13.27, -35.82], [11.94, -35.12], [12.09, -34.53], [10.86, -32.45], [11.21, -31.85], [9.97, -28.25], [8.62, -26.73], [7.51, -25.48], [6.97, -24.68], [6.97, -22.95], [5.97, -21.38], [4.91, -20.3], [3.31, -19.13], [1.97, -17.9], [0.29, -16.75], [-2.54, -16.53], [-4.34, -16.47], [-5.24, -16.08], [-6.8, -15.27], [-8.55, -14.28], [-10.42, -13.2], [-12.5, -11.85], [-14.18, -10.53], [-15.3, -9.53], [-16.33, -8.48], [-17.5, -7.22], [-19.38, -4.0], [-19.68, -2.1], [-19.85, -0.82], [-20.0, 0.45], [-20.3, 0.93], [-20.52, 1.63], [-20.93, 2.43], [-21.48, 3.18], [-22.37, 3.78], [-23.78, 5.13], [-25.05, 6.2], [-26.67, 8.97], [-27.58, 10.37], [-28.63, 11.62], [-29.55, 13.4], [-30.2, 15.13], [-31.1, 16.7], [-31.53, 18.47], [-31.77, 19.87], [-31.93, 20.77], [-32.23, 21.6], [-33.08, 23.02], [-34.12, 24.25], [-35.37, 25.07], [-35.5, 25.8], [-35.63, 25.9], [-35.63, 26.17], [-34.98, 26.78], [-35.22, 26.98], [-34.07, 27.63], [-33.18, 29.0], [-32.43, 30.25], [-31.27, 33.72], [-31.58, 34.13], [-31.68, 34.6], [-30.65, 35.5], [-29.68, 36.35], [-29.97, 38.3], [-30.25, 40.1], [-29.09, 42.83], [-26.69, 44.38], [-26.15, 45.08], [-25.19, 46.17], [-21.79, 48.02], [-20.61, 48.47], [-18.89, 49.42], [-18.44, 50.3], [-18.57, 49.98], [-17.56, 49.65], [-16.08, 49.52], [-15.93, 49.95], [-15.71, 49.25], [-15.13, 48.9], [-13.38, 49.25], [-11.36, 49.18], [-10.1, 49.3], [-6.12, 49.35], [-4.07, 49.82], [-3.25, 50.25]]}}, {"type": "Feature", "properties": {"ship": "Dover Castle", "company": "EIC", "power": "uk", "date_start": "1804-05-15", "date_end": "1804-11-20", "FromYear": 1804, "ToYear": 1804, "size": 2657}, "geometry": {"type": "LineString", "coordinates": [[-5.73, 49.4], [-8.1, 49.55], [-7.37, 48.58], [-8.1, 48.37], [-8.93, 48.35], [-10.18, 46.43], [-11.47, 46.65], [-10.6, 44.33], [-9.93, 44.62], [-10.08, 43.95], [-11.63, 42.4], [-12.97, 40.83], [-13.18, 39.12], [-13.98, 37.98], [-14.6, 36.15], [-14.75, 33.67], [-15.48, 32.43], [-16.22, 32.45], [-16.95, 31.82], [-17.13, 31.38], [-17.55, 29.75], [-20.0, 25.68], [-21.17, 23.43], [-22.53, 21.27], [-23.57, 18.97], [-25.5, 17.12], [-25.73, 14.68], [-25.62, 12.75], [-24.63, 10.65], [-23.67, 8.82], [-23.43, 7.77], [-23.25, 7.52], [-22.27, 7.25], [-21.93, 6.72], [-20.32, 6.1], [-21.23, 5.5], [-20.98, 4.98], [-21.97, 3.68], [-22.93, 2.23], [-24.42, 0.05], [-26.27, -0.47], [-26.5, -2.57], [-27.45, -4.2], [-28.2, -5.72], [-29.0, -7.18], [-29.35, -8.87], [-29.77, -10.83], [-30.07, -12.6], [-30.27, -16.38], [-30.97, -18.3], [-30.97, -20.17], [-30.93, -22.05], [-30.78, -23.48], [-30.02, -23.67], [-27.63, -23.53], [-24.97, -23.4], [-21.7, -23.02], [-19.0, -22.83], [-17.48, -22.62], [-18.08, -24.07], [-18.23, -25.32], [-16.4, -27.35], [-15.4, -27.38], [-13.8, -27.53], [-12.77, -27.45], [-10.63, -26.55], [-11.73, -26.0], [-11.5, -25.9], [-9.82, -26.32], [-9.22, -26.07], [-8.38, -26.05], [-8.23, -24.72], [-7.9, -23.82], [-7.53, -23.2], [-7.25, -22.33], [-5.58, -18.98], [-4.73, -17.6], [-5.53, -16.0], [-7.6, -16.88], [-9.17, -18.32], [-9.8, -20.08], [-11.72, -22.42], [-11.37, -24.23], [-10.23, -25.95], [-7.42, -26.92], [-7.78, -27.53], [-7.23, -29.68], [-5.15, -31.18], [-2.55, -32.75], [3.35, -34.85], [7.15, -36.22], [8.55, -36.7], [12.75, -37.68], [16.78, -38.57], [20.43, -39.38], [22.53, -39.08], [26.05, -39.35], [28.75, -39.47], [31.93, -39.07], [34.6, -38.93], [38.2, -39.9], [43.03, -39.73], [50.32, -39.55], [53.6, -38.77], [57.12, -38.03], [58.12, -37.23], [62.17, -37.52], [65.43, -37.17], [68.8, -36.92], [72.7, -36.45], [76.67, -35.78], [79.22, -34.23], [80.43, -33.68], [83.25, -32.63], [84.62, -30.07], [86.3, -26.63], [87.85, -19.47], [87.6, -16.52], [87.93, -16.53], [88.22, -14.67], [88.45, -11.57], [88.78, -8.68], [89.25, -5.67], [89.62, -4.57], [89.62, -3.92], [89.67, -3.85], [90.0, -3.82], [90.55, -2.47], [92.72, 0.6], [94.18, 2.5], [94.25, 3.22], [94.55, 4.57], [95.17, 6.4], [96.5, 8.3], [96.75, 10.4], [95.43, 12.6], [95.2, 13.07], [95.3, 14.33], [95.13, 15.05], [94.53, 14.93], [94.0, 15.37], [93.23, 15.12], [93.1, 15.42], [92.53, 16.7], [93.33, 17.3], [92.68, 17.48], [91.42, 18.28], [90.42, 19.55], [89.8, 20.8], [88.5, 21.02]]}}, {"type": "Feature", "properties": {"ship": "Bristol", "company": "Royal Navy", "power": "uk", "date_start": "1782-10-01", "date_end": "1783-04-15", "FromYear": 1782, "ToYear": 1783, "size": 3097}, "geometry": {"type": "LineString", "coordinates": [[-16.53, 47.88], [-17.33, 46.5], [-18.33, 44.45], [-19.15, 43.55], [-20.2, 42.22], [-22.15, 39.45], [-22.1, 37.13], [-21.67, 35.18], [-23.0, 33.25], [-23.67, 31.1], [-24.45, 29.7], [-24.02, 28.33], [-25.5, 27.38], [-25.83, 26.6], [-26.67, 25.05], [-28.7, 22.05], [-29.63, 20.9], [-30.0, 20.08], [-30.57, 19.0], [-31.45, 17.68], [-32.33, 16.3], [-33.62, 14.67], [-33.62, 13.38], [-33.62, 11.8], [-33.88, 10.17], [-33.88, 7.77], [-33.88, 6.83], [-34.33, 5.93], [-36.0, -0.13], [-36.75, -1.05], [-36.85, -2.73], [-34.76, -3.98], [-32.67, -5.0], [-32.33, -6.0], [-32.33, -7.28], [-34.37, -11.12], [-34.27, -11.15], [-33.9, -12.08], [-33.45, -11.08], [-33.92, -11.35], [-34.78, -11.75], [-36.0, -12.73], [-38.68, -13.65], [-38.45, -14.65], [-38.67, -15.33], [-36.8, -16.77], [-35.6, -17.18], [-34.0, -17.47], [-33.0, -18.27], [-31.65, -19.03], [-30.12, -20.22], [-29.84, -20.5], [-29.56, -20.79], [-29.28, -21.09], [-29.0, -21.38], [-28.5, -23.12], [-28.5, -24.12], [-27.98, -24.85], [-27.98, -25.77], [-27.62, -26.33], [-26.67, -27.45], [-26.12, -28.33], [-25.2, -29.08], [-24.27, -29.03], [-24.23, -29.92], [-23.65, -31.25], [-23.34, -31.27], [-23.03, -32.18], [-21.45, -33.5], [-17.68, -35.08], [-16.57, -36.1], [-15.45, -37.15], [-12.45, -38.22], [-9.9, -39.1], [-6.38, -40.17], [-0.18, -41.43], [2.17, -42.05], [4.4, -41.88], [7.0, -42.37], [8.67, -42.57], [10.67, -42.3], [12.67, -42.28], [15.82, -42.43], [18.67, -42.27], [21.63, -42.0], [26.95, -41.63], [30.3, -41.47], [34.48, -41.15], [35.15, -40.98], [37.32, -41.03], [39.18, -40.98], [40.25, -40.28], [40.63, -39.88], [41.6, -38.9], [43.23, -38.43], [46.17, -36.5], [46.5, -36.5], [48.93, -36.17], [50.67, -35.52], [52.0, -35.03], [53.33, -34.12], [54.38, -33.12], [55.5, -32.5], [60.18, -29.9], [61.58, -29.83], [65.3, -27.38], [66.5, -27.1], [67.17, -26.72], [66.63, -25.83], [66.63, -24.83], [66.63, -23.98], [67.45, -22.0], [68.65, -21.97], [69.2, -21.1], [69.97, -19.5], [72.0, -16.75], [73.25, -15.43], [74.55, -14.3], [75.22, -13.08], [75.72, -12.03], [76.52, -10.7], [77.5, -9.7], [77.9, -8.73], [78.73, -8.35], [78.73, -7.97], [79.45, -7.25], [80.33, -6.9], [80.37, -5.78], [81.48, -5.78], [82.57, -4.97], [82.82, -4.15], [83.13, -3.93], [83.98, -3.83], [84.95, -2.9], [85.97, -1.73], [87.55, 1.32], [88.67, 2.4], [88.15, 3.0], [88.9, 4.72], [87.7, 5.8], [87.92, 6.25], [87.4, 6.63], [87.2, 7.02], [86.22, 7.55], [85.53, 7.65], [84.05, 8.6], [83.15, 8.97], [82.23, 9.5], [81.7, 10.57], [81.0, 12.43]]}}, {"type": "Feature", "properties": {"ship": "Walpole", "company": "EIC", "power": "uk", "date_start": "1795-05-23", "date_end": "1795-11-17", "FromYear": 1795, "ToYear": 1795, "size": 2882}, "geometry": {"type": "LineString", "coordinates": [[95.0, 5.83], [93.63, 5.62], [93.18, 5.4], [92.32, 5.45], [91.33, 5.32], [90.38, 5.42], [90.97, 4.53], [91.68, 3.83], [92.87, 3.57], [93.12, 3.43], [93.25, 3.25], [94.02, 2.63], [94.17, 2.13], [94.42, 0.37], [94.32, -0.78], [94.4, -1.55], [95.03, -1.43], [95.32, -1.33], [95.03, -1.53], [94.97, -2.18], [94.6, -2.95], [92.93, -5.3], [92.05, -6.37], [91.85, -6.57], [90.57, -7.33], [89.63, -8.28], [87.0, -9.87], [86.08, -11.12], [83.42, -12.58], [78.97, -14.85], [76.07, -16.45], [74.05, -17.58], [71.82, -19.33], [69.47, -21.57], [67.22, -23.83], [64.63, -25.13], [62.28, -26.07], [61.07, -26.3], [57.15, -27.23], [55.37, -27.7], [53.25, -28.32], [52.1, -28.78], [48.88, -29.37], [46.38, -30.33], [46.83, -31.1], [45.73, -30.72], [40.12, -31.58], [38.13, -32.8], [37.77, -32.88], [35.73, -33.5], [33.78, -34.33], [33.62, -33.47], [32.77, -33.17], [30.67, -34.65], [30.8, -35.0], [30.53, -34.5], [28.12, -35.15], [28.83, -33.87], [27.83, -34.25], [27.28, -35.25], [26.05, -35.73], [23.27, -36.77], [21.5, -37.48], [22.65, -37.97], [20.27, -37.73], [18.27, -37.08], [18.37, -36.43], [18.2, -35.92], [17.62, -35.57], [16.55, -36.13], [15.2, -34.98], [12.83, -32.67], [12.22, -31.35], [11.13, -30.5], [9.82, -29.0], [7.68, -27.02], [5.6, -25.22], [4.12, -23.3], [2.87, -21.7], [1.5, -20.63], [0.68, -19.77], [-1.03, -18.47], [-2.75, -16.77], [-5.35, -15.25], [-6.83, -15.12], [-8.35, -13.63], [-10.12, -12.03], [-14.6, -9.18], [-16.15, -7.62], [-17.15, -6.07], [-19.97, -4.27], [-21.6, -2.42], [-23.05, -1.43], [-24.63, -0.67], [-25.02, 0.78], [-25.02, 2.92], [-24.9, 5.58], [-24.68, 7.17], [-24.52, 8.82], [-23.92, 10.72], [-23.8, 11.13], [-24.87, 11.57], [-25.98, 12.28], [-26.97, 12.77], [-28.15, 13.77], [-29.6, 14.43], [-30.88, 14.68], [-32.27, 14.78], [-31.65, 15.47], [-31.42, 16.53], [-31.73, 17.73], [-32.3, 19.42], [-34.13, 22.88], [-34.83, 24.35], [-35.63, 26.08], [-36.05, 28.05], [-36.43, 29.82], [-36.57, 30.35], [-36.3, 30.9], [-36.32, 30.87], [-36.08, 30.78], [-36.48, 30.73], [-36.42, 30.83], [-37.17, 31.25], [-38.42, 32.35], [-38.3, 32.73], [-38.2, 33.08], [-37.1, 35.28], [-33.72, 35.28], [-31.2, 35.2], [-29.67, 35.75], [-27.17, 35.97], [-26.03, 35.83], [-24.4, 35.43], [-22.5, 36.07], [-20.75, 37.42], [-19.53, 38.2], [-18.12, 40.7], [-18.18, 40.63], [-18.27, 41.02], [-17.35, 42.92], [-17.62, 44.88], [-16.32, 46.45], [-15.5, 47.98], [-15.03, 49.8], [-12.07, 50.52], [-9.05, 49.03], [-9.13, 49.08], [-8.27, 49.1], [-6.12, 49.57]]}}, {"type": "Feature", "properties": {"ship": "Travers", "company": "EIC", "power": "uk", "date_start": "1804-09-06", "date_end": "1805-04-24", "FromYear": 1804, "ToYear": 1805, "size": 3234}, "geometry": {"type": "LineString", "coordinates": [[-3.25, 50.2], [-4.47, 49.65], [-4.72, 49.97], [-7.23, 49.12], [-7.83, 48.98], [-8.97, 48.96], [-10.1, 48.93], [-11.87, 49.17], [-12.7, 46.98], [-14.65, 45.78], [-14.28, 45.28], [-13.88, 42.38], [-14.6, 40.7], [-15.5, 38.1], [-17.65, 36.37], [-18.4, 36.25], [-17.53, 34.38], [-16.63, 33.03], [-16.92, 31.7], [-18.45, 29.13], [-20.95, 24.9], [-22.27, 22.93], [-23.88, 20.57], [-24.42, 17.68], [-25.63, 15.98], [-25.43, 12.22], [-24.77, 10.97], [-23.43, 9.87], [-22.63, 8.83], [-21.4, 7.72], [-21.63, 7.13], [-21.1, 6.0], [-21.02, 5.63], [-20.6, 5.55], [-20.43, 5.47], [-19.55, 4.62], [-19.32, 4.22], [-19.08, 3.87], [-18.25, 3.87], [-17.38, 3.88], [-16.83, 3.45], [-16.4, 3.17], [-17.37, 2.85], [-17.42, 2.54], [-17.47, 2.23], [-18.42, 1.53], [-19.77, 0.85], [-22.27, -1.37], [-23.45, -2.7], [-25.7, -4.2], [-25.13, -5.75], [-25.83, -7.53], [-26.22, -9.23], [-26.63, -12.82], [-26.62, -14.78], [-26.1, -17.0], [-25.43, -18.92], [-24.25, -20.28], [-23.27, -20.9], [-21.93, -21.53], [-21.15, -22.17], [-20.25, -22.37], [-18.88, -22.4], [-18.1, -22.27], [-19.83, -24.27], [-20.12, -25.2], [-20.6, -26.62], [-20.25, -28.52], [-18.83, -29.32], [-15.56, -30.22], [-13.6, -30.33], [-12.08, -30.13], [-11.27, -29.95], [-10.4, -29.45], [-9.65, -29.03], [-7.65, -27.47], [-7.78, -26.57], [-7.5, -25.28], [-7.5, -24.68], [-7.4, -24.28], [-7.25, -23.67], [-6.53, -21.85], [-6.35, -21.1], [-5.55, -20.0], [-4.93, -17.95], [-6.45, -16.33], [-7.38, -19.18], [-7.62, -20.77], [-8.02, -22.02], [-8.63, -22.85], [-9.5, -24.57], [-9.98, -26.23], [-10.4, -28.4], [-10.15, -28.75], [-10.62, -29.67], [-10.52, -31.38], [-8.3, -33.58], [-3.27, -35.18], [-1.77, -34.7], [1.65, -36.38], [5.05, -37.12], [9.03, -37.98], [12.42, -38.3], [14.45, -39.58], [17.7, -39.67], [19.05, -39.37], [22.77, -39.6], [26.0, -39.22], [29.08, -38.75], [31.85, -39.68], [33.7, -40.15], [37.1, -40.7], [41.25, -40.45], [44.45, -40.4], [51.02, -40.48], [54.1, -40.27], [55.67, -40.28], [58.9, -40.08], [62.02, -38.92], [66.5, -38.8], [69.17, -38.35], [71.22, -38.4], [73.67, -39.05], [76.87, -39.08], [78.93, -39.4], [82.27, -34.73], [83.22, -31.73], [83.77, -29.12], [84.02, -27.78], [84.22, -26.0], [84.5, -20.2], [84.7, -17.18], [84.77, -14.07], [84.47, -10.82], [84.62, -8.3], [84.73, -6.08], [84.8, -1.93], [86.35, 0.2], [86.83, 1.27], [87.38, 2.1], [87.92, 2.72], [87.97, 4.27], [86.67, 5.45], [85.98, 6.2], [84.33, 7.63], [83.28, 9.55], [82.62, 10.53], [84.42, 13.53], [84.05, 14.98], [84.58, 16.78]]}}, {"type": "Feature", "properties": {"ship": "Worcester", "company": "EIC", "power": "uk", "date_start": "1771-03-06", "date_end": "1771-08-19", "FromYear": 1771, "ToYear": 1771, "size": 2964}, "geometry": {"type": "LineString", "coordinates": [[88.62, 19.75], [88.9, 18.7], [89.0, 18.03], [88.95, 17.22], [88.85, 16.2], [88.72, 14.98], [88.52, 14.13], [88.4, 13.42], [88.37, 12.75], [88.1, 11.42], [88.08, 10.45], [88.07, 10.15], [87.9, 9.08], [87.57, 7.32], [87.52, 6.88], [87.52, 6.05], [87.55, 5.58], [87.42, 4.88], [87.52, 4.45], [87.38, 3.17], [87.32, 2.8], [87.53, 1.8], [87.75, 0.37], [87.75, -0.5], [87.78, -0.63], [88.12, -0.7], [88.25, -0.78], [88.42, -2.17], [88.37, -3.32], [88.52, -3.67], [88.38, -3.57], [88.13, -3.52], [87.85, -3.7], [86.9, -4.07], [86.77, -4.37], [86.63, -5.28], [85.98, -5.75], [85.05, -6.97], [82.72, -9.7], [80.62, -11.0], [78.7, -12.37], [77.22, -14.0], [75.3, -15.9], [73.53, -17.55], [72.23, -18.93], [70.63, -19.82], [68.1, -20.95], [65.13, -22.2], [62.07, -23.43], [59.28, -24.65], [56.92, -24.73], [54.72, -26.67], [53.33, -27.17], [51.63, -27.43], [50.48, -27.5], [50.18, -27.68], [49.98, -27.78], [49.55, -29.03], [48.5, -28.25], [47.02, -28.9], [46.28, -29.15], [44.23, -29.58], [41.95, -30.37], [38.4, -31.77], [35.65, -32.62], [33.13, -33.58], [31.92, -35.07], [32.57, -35.28], [32.35, -35.28], [30.03, -35.75], [29.12, -36.2], [28.18, -36.18], [27.57, -35.58], [26.57, -35.63], [25.42, -35.78], [22.75, -34.98], [20.08, -36.57], [17.5, -35.07], [16.08, -33.4], [15.23, -32.32], [13.4, -30.67], [11.9, -29.05], [11.75, -28.48], [10.52, -26.93], [8.62, -25.08], [6.45, -23.03], [4.38, -21.05], [1.13, -17.37], [-0.43, -16.08], [-2.62, -16.0], [-7.05, -14.18], [-8.48, -12.68], [-9.92, -10.82], [-11.23, -8.08], [-12.78, -6.07], [-13.85, -4.87], [-14.87, -3.1], [-16.0, -1.17], [-17.08, 0.72], [-18.32, 2.15], [-19.57, 3.9], [-20.78, 5.57], [-22.03, 7.33], [-22.53, 8.52], [-22.53, 9.4], [-23.13, 9.23], [-23.45, 9.47], [-23.82, 10.1], [-24.75, 10.42], [-25.73, 11.2], [-26.42, 11.97], [-27.4, 12.75], [-28.72, 13.38], [-30.4, 13.72], [-32.1, 14.85], [-33.25, 16.58], [-34.38, 18.28], [-35.95, 20.33], [-37.27, 21.95], [-38.13, 23.53], [-38.2, 25.72], [-39.27, 28.18], [-40.45, 30.05], [-41.62, 31.27], [-41.85, 32.78], [-41.98, 33.23], [-41.68, 33.2], [-41.7, 33.75], [-41.85, 34.42], [-41.57, 34.87], [-42.28, 35.12], [-42.39, 35.32], [-41.96, 35.92], [-41.44, 37.3], [-41.92, 37.42], [-41.13, 38.2], [-39.54, 39.07], [-36.48, 40.73], [-34.12, 41.68], [-32.16, 42.52], [-29.91, 43.42], [-26.65, 44.27], [-24.16, 45.1], [-23.79, 46.22], [-22.53, 47.77], [-19.21, 48.63], [-15.14, 49.08], [-12.1, 49.83], [-9.61, 49.32], [-6.5, 49.9]]}}, {"type": "Feature", "properties": {"ship": "Walpole", "company": "EIC", "power": "uk", "date_start": "1780-12-16", "date_end": "1781-10-11", "FromYear": 1780, "ToYear": 1781, "size": 2572}, "geometry": {"type": "LineString", "coordinates": [[88.5, 20.12], [88.13, 18.5], [87.68, 16.73], [87.32, 15.28], [87.0, 13.53], [86.83, 12.6], [86.83, 10.6], [86.83, 6.2], [86.67, 4.07], [86.53, 3.43], [86.47, 2.08], [86.37, 1.87], [86.3, 0.53], [86.23, -0.18], [86.18, -0.68], [86.13, -0.57], [86.03, -1.62], [86.03, -3.52], [86.3, -5.53], [86.3, -7.15], [85.48, -9.03], [83.92, -12.15], [82.97, -13.83], [82.22, -15.25], [81.68, -16.22], [80.28, -18.05], [79.2, -19.2], [78.55, -20.35], [78.02, -20.3], [77.33, -20.97], [76.4, -21.63], [75.12, -22.45], [73.48, -23.05], [71.55, -24.06], [66.92, -25.62], [64.82, -25.95], [62.88, -26.47], [61.3, -26.67], [59.62, -26.63], [57.55, -27.1], [55.67, -27.45], [53.85, -27.62], [52.23, -28.0], [49.75, -28.38], [47.18, -28.77], [44.72, -29.63], [42.68, -29.98], [40.97, -30.5], [36.88, -33.15], [35.32, -34.3], [34.07, -34.92], [32.3, -34.83], [30.2, -36.17], [27.93, -37.58], [27.48, -39.22], [28.45, -39.42], [28.05, -39.67], [26.45, -40.4], [25.85, -40.43], [25.48, -39.93], [25.1, -40.0], [25.0, -39.82], [22.9, -39.4], [20.68, -38.17], [19.93, -37.83], [19.23, -37.9], [17.45, -37.48], [15.53, -37.3], [14.28, -36.03], [13.12, -34.75], [11.5, -33.18], [9.63, -31.43], [7.58, -29.45], [6.17, -27.33], [4.92, -25.45], [2.97, -22.28], [1.82, -20.92], [0.63, -19.5], [-0.6, -18.27], [-1.92, -16.72], [-4.07, -16.3], [-5.53, -16.4], [-7.2, -14.95], [-8.75, -14.17], [-10.45, -13.28], [-12.03, -12.27], [-13.67, -11.3], [-15.08, -10.23], [-16.2, -9.52], [-18.97, -7.0], [-20.23, -5.02], [-21.2, -3.47], [-22.22, -1.83], [-22.58, -0.1], [-22.73, 1.23], [-22.97, 2.82], [-23.25, 4.87], [-23.55, 7.63], [-23.85, 9.77], [-24.3, 11.43], [-25.52, 12.75], [-25.85, 13.37], [-26.63, 13.02], [-27.7, 13.77], [-28.63, 14.8], [-29.57, 15.87], [-30.45, 17.13], [-31.75, 18.39], [-33.02, 19.65], [-34.52, 21.38], [-34.97, 23.07], [-35.87, 24.65], [-36.53, 26.27], [-37.53, 27.45], [-38.7, 28.77], [-39.65, 29.78], [-40.9, 31.22], [-40.73, 32.12], [-40.28, 33.17], [-41.12, 33.92], [-40.9, 34.7], [-41.65, 35.48], [-42.72, 36.65], [-42.18, 38.25], [-41.45, 39.22], [-40.38, 39.78], [-38.17, 40.48], [-35.5, 41.1], [-32.08, 42.03], [-30.32, 42.52], [-30.78, 42.76], [-30.53, 43.0], [-29.78, 43.5], [-27.72, 44.27], [-25.22, 45.02], [-24.21, 45.77], [-23.91, 45.4], [-22.72, 45.82], [-20.25, 46.5], [-17.88, 47.35], [-16.08, 47.99], [-14.92, 48.63], [-13.37, 49.25], [-10.05, 49.27], [-9.35, 49.45], [-8.68, 49.63], [-7.62, 49.93], [-7.62, 50.22], [-6.73, 50.07], [-6.48, 49.92]]}}, {"type": "Feature", "properties": {"ship": "Glatton", "company": "EIC", "power": "uk", "date_start": "1778-02-04", "date_end": "1778-07-10", "FromYear": 1778, "ToYear": 1778, "size": 2798}, "geometry": {"type": "LineString", "coordinates": [[-7.97, 49.55], [-9.52, 49.27], [-10.52, 49.2], [-11.22, 48.02], [-12.67, 48.22], [-12.67, 46.75], [-14.53, 46.42], [-14.78, 45.67], [-16.35, 46.12], [-17.98, 46.17], [-18.13, 44.23], [-18.0, 42.0], [-18.0, 39.32], [-18.32, 36.88], [-19.18, 34.6], [-20.03, 33.2], [-21.32, 31.88], [-22.4, 29.87], [-23.45, 27.98], [-24.62, 25.87], [-25.75, 23.88], [-27.0, 21.77], [-28.22, 18.88], [-29.62, 16.4], [-28.05, 14.57], [-27.85, 12.75], [-26.57, 10.62], [-25.38, 8.57], [-24.53, 6.97], [-23.43, 5.13], [-22.87, 3.95], [-22.55, 2.57], [-22.52, 1.88], [-22.47, 1.33], [-22.52, 0.52], [-23.37, -0.53], [-24.13, -1.27], [-24.78, -2.5], [-25.2, -3.67], [-26.98, -5.08], [-28.65, -6.75], [-29.48, -8.82], [-30.02, -9.97], [-30.38, -11.42], [-30.93, -12.98], [-31.42, -14.85], [-31.1, -16.2], [-31.05, -17.05], [-31.27, -18.05], [-31.02, -18.87], [-30.58, -20.05], [-29.62, -21.77], [-28.93, -22.9], [-28.48, -23.3], [-28.0, -23.95], [-27.1, -25.03], [-26.58, -26.78], [-23.88, -28.53], [-22.78, -30.0], [-21.17, -30.73], [-19.45, -31.68], [-18.52, -33.27], [-16.38, -33.7], [-13.92, -33.42], [-12.17, -32.48], [-12.23, -32.57], [-12.97, -33.07], [-11.83, -33.37], [-10.15, -34.35], [-7.03, -34.33], [-5.77, -33.65], [-5.85, -33.87], [-4.75, -35.0], [-1.38, -36.1], [1.05, -36.63], [0.88, -36.93], [1.33, -36.75], [2.1, -38.05], [2.15, -38.67], [5.3, -38.62], [8.05, -37.5], [9.62, -37.0], [10.17, -36.85], [10.92, -36.77], [12.97, -36.45], [15.82, -35.83], [19.27, -35.48], [20.93, -35.38], [21.32, -35.62], [24.0, -35.4], [21.22, -35.33], [22.57, -35.83], [23.57, -35.45], [24.93, -35.7], [25.55, -36.28], [26.23, -37.82], [28.9, -36.7], [31.78, -35.87], [34.97, -35.45], [36.98, -34.03], [37.87, -32.35], [38.02, -31.28], [37.68, -30.22], [37.85, -29.68], [37.85, -29.73], [38.37, -29.5], [38.88, -29.6], [39.08, -29.97], [39.25, -29.48], [39.1, -27.77], [39.22, -25.87], [40.03, -24.5], [40.38, -23.33], [40.27, -22.43], [40.27, -22.25], [40.35, -21.68], [40.27, -21.08], [40.19, -20.38], [40.36, -20.08], [40.26, -19.98], [40.59, -19.85], [40.96, -19.47], [42.26, -18.15], [42.58, -16.47], [42.85, -14.65], [43.0, -13.33], [44.25, -9.18], [44.08, -7.5], [44.68, -5.03], [44.42, -3.13], [47.37, -1.02], [48.35, 0.1], [50.25, 1.67], [52.32, 3.22], [54.32, 3.96], [56.4, 5.43], [58.46, 5.76], [60.31, 6.63], [62.9, 7.58], [64.18, 8.07], [66.01, 8.41], [68.21, 8.22], [70.29, 8.14], [72.32, 7.68], [73.88, 7.96], [75.01, 8.13], [75.52, 8.11], [76.5, 8.0], [77.65, 6.7], [79.85, 5.93]]}}, {"type": "Feature", "properties": {"ship": "Tilbury", "company": "EIC", "power": "uk", "date_start": "1764-12-18", "date_end": "1765-06-26", "FromYear": 1764, "ToYear": 1765, "size": 2663}, "geometry": {"type": "LineString", "coordinates": [[-4.7, 48.95], [-6.43, 49.38], [-8.4, 48.67], [-7.95, 47.82], [-10.31, 47.42], [-13.31, 46.8], [-13.43, 46.4], [-12.81, 46.28], [-12.93, 45.47], [-12.5, 45.27], [-12.93, 45.7], [-12.93, 45.7], [-14.01, 45.93], [-13.63, 45.27], [-14.16, 44.67], [-14.16, 43.6], [-14.48, 44.37], [-15.03, 44.97], [-15.51, 45.67], [-15.7, 45.55], [-15.7, 44.48], [-15.85, 44.82], [-15.63, 44.9], [-16.35, 42.92], [-15.88, 41.5], [-15.28, 39.27], [-16.15, 37.93], [-16.3, 36.25], [-15.93, 36.12], [-15.21, 34.85], [-16.01, 33.47], [-17.14, 31.63], [-18.2, 30.53], [-19.15, 29.05], [-19.49, 27.92], [-19.95, 24.22], [-19.95, 21.27], [-19.95, 18.1], [-19.62, 15.32], [-19.7, 12.62], [-19.79, 10.0], [-19.89, 7.68], [-19.97, 5.9], [-20.0, 5.53], [-20.05, 4.8], [-20.2, 3.57], [-20.22, 3.43], [-20.25, 2.95], [-20.25, 2.95], [-20.49, 2.55], [-21.24, 1.27], [-21.95, 0.13], [-22.74, -0.8], [-23.57, -1.75], [-24.12, -3.02], [-24.79, -6.0], [-25.04, -7.67], [-25.55, -9.23], [-26.05, -10.68], [-26.22, -11.95], [-26.3, -13.23], [-26.37, -14.92], [-26.37, -16.52], [-26.4, -18.35], [-26.4, -20.13], [-26.0, -24.05], [-25.88, -25.55], [-25.52, -27.45], [-24.57, -29.02], [-23.27, -30.17], [-21.37, -29.75], [-21.68, -30.77], [-21.07, -31.57], [-18.88, -32.05], [-16.82, -32.72], [-10.07, -34.13], [-7.53, -34.28], [-5.32, -34.52], [-2.25, -34.22], [-0.5, -34.25], [0.49, -35.32], [2.48, -35.68], [5.53, -35.68], [7.52, -35.48], [10.17, -34.47], [13.25, -33.8], [14.29, -33.8], [14.72, -34.0], [14.71, -33.95], [15.25, -33.9], [15.25, -34.27], [16.41, -34.43], [15.81, -34.28], [15.95, -33.72], [14.55, -33.93], [13.33, -34.93], [14.22, -35.98], [16.45, -36.07], [17.84, -36.32], [18.76, -36.67], [19.0, -36.85], [20.73, -37.65], [21.68, -39.0], [22.63, -39.33], [23.95, -39.52], [27.97, -36.82], [28.5, -35.18], [29.08, -36.07], [29.33, -37.17], [28.92, -35.6], [29.45, -37.02], [30.4, -38.02], [32.78, -38.15], [35.44, -38.05], [36.68, -37.35], [39.4, -33.67], [40.26, -32.25], [41.32, -32.32], [41.79, -31.88], [42.06, -31.72], [42.34, -30.72], [42.57, -29.55], [42.8, -27.93], [43.07, -26.12], [43.7, -24.98], [41.3, -24.17], [41.61, -23.87], [42.16, -22.68], [42.25, -21.65], [42.11, -19.42], [41.75, -17.02], [41.06, -15.22], [42.15, -12.78], [44.45, -10.67], [44.58, -8.97], [45.07, -4.47], [45.85, -2.27], [47.22, 0.03], [49.35, 2.2], [51.67, 3.68], [54.05, 4.52], [56.55, 5.58], [59.05, 6.57], [61.98, 7.52], [64.52, 8.13], [68.77, 8.82], [70.9, 8.88], [73.33, 8.6], [75.5, 8.6], [76.65, 8.2]]}}, {"type": "Feature", "properties": {"ship": "Worcester", "company": "EIC", "power": "uk", "date_start": "1768-02-01", "date_end": "1768-07-20", "FromYear": 1768, "ToYear": 1768, "size": 2582}, "geometry": {"type": "LineString", "coordinates": [[79.98, 5.6], [80.41, 4.87], [80.48, 3.95], [80.85, 2.85], [81.25, 1.67], [81.15, 0.75], [81.15, 0.28], [81.46, -0.32], [81.78, -0.8], [82.03, -1.73], [82.08, -2.15], [82.15, -2.82], [82.15, -3.68], [82.58, -4.5], [82.9, -5.18], [83.05, -6.35], [82.76, -7.75], [82.86, -8.87], [83.56, -9.75], [83.95, -9.95], [84.0, -9.87], [83.78, -9.78], [84.0, -9.98], [83.93, -9.87], [83.15, -11.03], [81.63, -12.8], [79.91, -14.37], [78.2, -15.98], [75.61, -17.62], [74.81, -19.42], [72.26, -20.5], [69.4, -21.33], [66.23, -22.27], [62.95, -23.1], [60.66, -23.07], [58.31, -24.77], [56.45, -25.87], [54.25, -27.0], [51.15, -28.3], [48.93, -29.0], [46.88, -29.9], [44.91, -30.4], [44.56, -30.53], [43.98, -30.63], [41.58, -30.95], [39.31, -31.78], [36.83, -32.63], [35.38, -33.63], [34.11, -33.08], [33.5, -33.28], [32.56, -33.42], [30.33, -34.7], [28.67, -35.5], [28.87, -35.92], [28.18, -35.85], [28.28, -35.15], [29.13, -35.3], [27.65, -35.28], [25.34, -35.4], [23.06, -35.27], [20.78, -35.17], [18.49, -35.03], [16.22, -32.0], [15.24, -31.0], [14.34, -30.0], [13.47, -28.92], [11.64, -27.2], [10.39, -26.05], [8.92, -24.65], [7.42, -23.22], [5.81, -21.68], [4.26, -20.17], [2.86, -18.73], [1.52, -17.45], [0.56, -16.02], [-1.49, -15.93], [-6.47, -14.63], [-6.77, -14.07], [-7.33, -13.23], [-8.62, -11.6], [-9.9, -9.77], [-11.03, -8.13], [-12.35, -6.3], [-13.6, -4.52], [-14.6, -3.0], [-15.38, -1.75], [-15.98, -0.77], [-16.6, 0.48], [-17.43, 1.82], [-18.4, 3.22], [-18.68, 4.22], [-19.1, 5.38], [-19.63, 6.62], [-19.6, 7.08], [-19.82, 7.13], [-20.23, 7.97], [-20.98, 9.3], [-21.53, 9.9], [-22.82, 11.17], [-23.13, 12.43], [-25.23, 13.77], [-26.43, 15.32], [-27.53, 17.0], [-28.63, 18.78], [-29.27, 20.22], [-29.92, 21.63], [-30.68, 22.9], [-31.38, 24.73], [-31.97, 25.9], [-32.53, 26.48], [-33.27, 27.2], [-33.67, 27.55], [-33.88, 28.28], [-33.88, 29.1], [-33.88, 30.1], [-34.28, 30.3], [-34.65, 30.28], [-34.58, 30.33], [-34.13, 30.35], [-34.57, 30.1], [-35.3, 30.35], [-35.68, 30.33], [-36.2, 30.83], [-36.57, 31.48], [-36.47, 32.08], [-36.35, 33.03], [-36.03, 33.73], [-36.3, 33.33], [-36.08, 33.13], [-35.83, 33.82], [-36.36, 33.63], [-36.63, 34.33], [-36.89, 36.8], [-36.83, 37.9], [-35.93, 39.9], [-33.59, 41.55], [-32.77, 42.0], [-30.31, 43.1], [-29.07, 43.48], [-26.42, 44.58], [-24.17, 45.57], [-21.44, 46.7], [-20.07, 47.07], [-19.12, 47.37], [-18.24, 48.12], [-15.67, 48.47], [-13.6, 49.0], [-10.33, 49.62], [-7.23, 49.42], [-4.5, 49.53]]}}, {"type": "Feature", "properties": {"ship": "Thames", "company": "EIC", "power": "uk", "date_start": "1800-11-03", "date_end": "1801-04-08", "FromYear": 1800, "ToYear": 1801, "size": 2336}, "geometry": {"type": "LineString", "coordinates": [[98.22, 5.58], [98.1, 6.07], [97.87, 6.1], [97.75, 6.33], [96.97, 6.18], [97.02, 6.53], [96.43, 6.07], [96.23, 6.27], [95.72, 6.78], [95.3, 7.17], [94.95, 7.0], [95.04, 7.28], [95.13, 6.45], [94.7, 6.43], [94.17, 5.55], [94.95, 6.62], [95.03, 6.72], [94.93, 7.02], [92.47, 7.53], [94.25, 7.75], [94.17, 7.58], [94.83, 7.37], [94.78, 7.9], [94.25, 8.4], [93.97, 8.63], [93.17, 9.07], [92.82, 9.85], [92.43, 9.43], [92.02, 8.92], [90.88, 8.37], [89.97, 7.67], [89.55, 6.37], [89.5, 5.53], [89.13, 5.33], [88.17, 4.85], [87.38, 4.2], [87.0, 4.07], [86.9, 3.65], [87.4, 2.22], [88.03, 0.97], [88.42, -0.87], [88.5, -2.67], [88.25, -4.8], [88.72, -7.4], [89.03, -9.05], [89.73, -9.8], [90.33, -10.62], [90.2, -11.68], [89.42, -13.0], [88.27, -13.7], [87.67, -14.1], [86.45, -14.67], [84.1, -15.53], [81.4, -16.4], [79.83, -17.35], [77.77, -18.07], [75.0, -19.3], [71.75, -20.55], [69.12, -22.03], [66.8, -23.22], [64.25, -24.58], [60.72, -25.88], [57.73, -26.73], [56.5, -27.1], [53.67, -27.75], [51.63, -28.57], [49.98, -28.8], [49.3, -29.0], [48.82, -29.65], [46.0, -30.48], [43.73, -31.28], [42.32, -31.57], [40.22, -32.1], [37.12, -32.67], [34.6, -33.33], [27.5, -35.33], [25.93, -35.1], [23.8, -35.15], [19.07, -35.37], [14.85, -34.22], [11.92, -31.85], [9.38, -29.4], [6.98, -27.2], [4.43, -24.85], [2.45, -22.9], [0.7, -21.12], [-0.97, -19.28], [-3.08, -17.53], [-5.27, -16.0], [-6.97, -14.57], [-7.98, -13.55], [-9.27, -12.35], [-10.68, -10.72], [-12.32, -9.1], [-14.18, -8.03], [-15.62, -7.0], [-16.83, -5.92], [-17.95, -5.13], [-19.55, -3.87], [-21.12, -2.55], [-22.03, -1.77], [-22.63, -1.82], [-23.2, -1.65], [-23.57, -1.17], [-23.7, -0.82], [-23.77, -0.4], [-24.53, -0.15], [-25.27, 0.35], [-26.0, 0.97], [-26.77, 1.98], [-27.2, 2.9], [-27.72, 3.67], [-28.28, 4.33], [-29.1, 5.07], [-30.23, 6.2], [-31.22, 7.47], [-32.5, 8.72], [-33.67, 10.23], [-34.95, 12.02], [-36.42, 13.73], [-37.33, 15.63], [-38.5, 17.33], [-39.83, 19.3], [-41.4, 21.33], [-42.52, 23.0], [-42.58, 24.5], [-42.05, 26.22], [-41.37, 28.23], [-40.47, 30.85], [-40.03, 33.37], [-39.6, 35.58], [-38.55, 36.8], [-38.57, 37.68], [-37.55, 39.52], [-34.33, 40.58], [-31.92, 41.9], [-29.33, 43.3], [-27.33, 44.25], [-24.27, 45.42], [-21.67, 46.52], [-18.15, 47.5], [-14.92, 48.92], [-12.87, 50.13], [-11.7, 51.25], [-12.15, 50.42], [-11.95, 49.5], [-10.45, 48.75], [-10.27, 48.97], [-7.03, 49.25], [-3.77, 49.83]]}}, {"type": "Feature", "properties": {"ship": "Sceptre", "company": "Royal Navy", "power": "uk", "date_start": "1803-06-30", "date_end": "1804-01-07", "FromYear": 1803, "ToYear": 1804, "size": 3033}, "geometry": {"type": "LineString", "coordinates": [[-5.85, 47.62], [-7.1, 45.8], [-8.4, 44.95], [-9.88, 43.45], [-9.88, 41.23], [-9.82, 39.37], [-9.33, 37.68], [-9.09, 37.25], [-8.85, 36.73], [-8.57, 36.8], [-8.35, 36.48], [-8.1, 36.58], [-7.85, 36.12], [-7.3, 36.05], [-6.43, 36.07], [-6.6, 35.73], [-6.52, 35.82], [-6.8, 36.0], [-6.52, 36.02], [-7.17, 36.4], [-7.88, 35.97], [-7.75, 36.92], [-7.62, 36.48], [-7.4, 36.6], [-7.18, 36.8], [-6.97, 36.88], [-6.75, 36.93], [-6.53, 36.92], [-10.38, 33.93], [-14.5, 32.23], [-17.68, 30.43], [-19.0, 27.43], [-20.72, 24.5], [-22.38, 21.93], [-23.85, 19.73], [-24.65, 17.77], [-25.03, 17.4], [-25.42, 15.77], [-25.35, 14.02], [-25.27, 12.32], [-25.58, 11.28], [-25.85, 11.05], [-25.1, 9.92], [-24.93, 8.98], [-23.78, 8.78], [-24.6, 8.57], [-25.12, 8.22], [-24.98, 8.17], [-25.87, 7.82], [-25.27, 6.72], [-25.97, 6.08], [-27.33, 4.98], [-28.5, 3.93], [-28.05, 3.18], [-28.63, 2.48], [-30.57, 1.67], [-29.77, 1.6], [-29.97, 1.1], [-29.15, -0.37], [-29.27, -2.22], [-29.6, -3.93], [-30.17, -6.77], [-30.83, -9.27], [-31.78, -11.5], [-33.25, -14.6], [-34.12, -16.6], [-35.12, -19.07], [-37.05, -20.77], [-38.93, -22.8], [-41.33, -22.98], [-42.47, -23.75], [-42.02, -24.47], [-41.02, -26.08], [-39.82, -27.97], [-37.27, -29.4], [-34.68, -30.8], [-31.9, -31.4], [-29.25, -31.82], [-27.55, -31.98], [-25.28, -32.27], [-24.98, -32.6], [-22.98, -33.05], [-21.87, -33.52], [-19.4, -34.65], [-14.72, -36.07], [-11.62, -36.67], [-8.73, -37.23], [-5.05, -37.87], [-1.7, -38.18], [0.87, -38.48], [2.62, -38.63], [6.95, -39.27], [7.73, -39.13], [10.15, -39.18], [15.08, -38.95], [19.65, -39.05], [24.25, -38.85], [28.5, -38.58], [30.82, -38.47], [32.2, -39.12], [35.6, -39.95], [36.4, -39.62], [36.58, -38.7], [37.9, -38.17], [41.03, -38.22], [45.0, -37.97], [48.97, -37.45], [51.18, -37.35], [56.27, -37.55], [61.25, -37.43], [66.38, -36.98], [70.62, -36.83], [74.75, -36.72], [77.98, -36.65], [81.8, -35.55], [83.95, -33.92], [85.52, -31.8], [86.43, -30.08], [86.92, -28.8], [87.17, -27.55], [86.75, -26.25], [87.37, -24.37], [88.92, -19.93], [89.12, -17.9], [89.82, -15.65], [90.7, -13.73], [91.68, -11.18], [92.95, -8.95], [93.88, -7.32], [94.73, -5.53], [95.2, -4.95], [96.28, -3.13], [96.93, -1.38], [96.87, -0.28], [96.6, 1.72], [96.32, 2.13], [96.05, 1.95], [95.78, 2.02], [95.51, 2.2], [95.24, 3.12], [94.77, 4.9], [94.58, 5.32], [93.5, 5.8], [92.25, 6.67], [91.83, 7.58], [91.33, 9.12], [90.5, 10.8], [88.78, 12.55], [86.28, 14.1], [82.98, 13.52]]}}, {"type": "Feature", "properties": {"ship": "Walpole", "company": "EIC", "power": "uk", "date_start": "1794-06-25", "date_end": "1794-12-31", "FromYear": 1794, "ToYear": 1794, "size": 3123}, "geometry": {"type": "LineString", "coordinates": [[-6.37, 49.08], [-7.17, 48.45], [-8.38, 47.42], [-8.57, 45.17], [-8.57, 43.8], [-8.53, 43.78], [-10.08, 43.25], [-13.28, 41.32], [-15.73, 37.58], [-16.73, 35.78], [-17.67, 34.0], [-18.67, 32.12], [-19.55, 30.15], [-20.8, 27.75], [-22.32, 23.43], [-23.52, 21.85], [-24.12, 19.98], [-24.88, 17.38], [-24.5, 15.17], [-23.45, 13.62], [-22.95, 13.05], [-22.68, 12.85], [-22.15, 12.12], [-24.05, 11.0], [-22.23, 9.77], [-21.4, 9.02], [-20.55, 8.63], [-19.43, 8.45], [-18.53, 7.75], [-17.42, 6.63], [-18.42, 5.8], [-19.35, 4.78], [-20.72, 3.85], [-21.6, 2.72], [-22.68, 1.57], [-25.75, -1.8], [-26.27, -3.13], [-27.77, -4.6], [-27.97, -6.1], [-28.98, -8.02], [-30.5, -11.92], [-31.53, -13.67], [-32.28, -15.25], [-32.33, -17.22], [-32.38, -18.78], [-31.35, -20.77], [-30.78, -24.92], [-28.87, -26.67], [-25.03, -27.93], [-24.08, -28.08], [-24.73, -28.67], [-26.8, -30.88], [-25.53, -32.42], [-21.57, -33.32], [-19.05, -33.98], [-17.9, -34.03], [-8.93, -34.65], [-5.45, -34.88], [-2.32, -34.98], [1.5, -34.92], [4.78, -35.05], [8.38, -35.35], [15.2, -35.18], [18.1, -34.25], [17.52, -35.22], [18.1, -36.32], [21.0, -38.0], [27.9, -37.98], [26.98, -38.38], [28.5, -38.2], [31.25, -38.32], [34.87, -38.58], [40.22, -38.7], [44.13, -39.17], [48.9, -39.33], [51.7, -39.8], [57.2, -39.63], [58.72, -39.6], [62.97, -38.2], [63.62, -37.92], [64.5, -39.38], [67.28, -39.32], [68.9, -40.63], [75.37, -41.7], [80.3, -41.6], [84.8, -42.4], [90.13, -42.4], [93.33, -42.33], [103.72, -42.92], [107.68, -42.58], [112.72, -42.67], [116.57, -42.78], [118.77, -43.17], [122.63, -43.55], [131.02, -44.12], [134.98, -43.97], [137.0, -44.3], [142.52, -44.3], [145.6, -43.85], [147.62, -46.23], [147.92, -45.72], [147.23, -45.47], [147.15, -45.07], [148.17, -45.38], [153.53, -40.78], [155.48, -38.2], [157.85, -36.1], [159.9, -33.97], [160.85, -32.58], [162.98, -31.25], [168.13, -27.58], [168.63, -25.28], [169.18, -22.67], [169.63, -20.48], [169.77, -19.62], [171.77, -14.25], [172.95, -11.68], [171.57, -9.83], [171.12, -8.78], [170.93, -8.43], [169.58, -7.12], [169.58, -6.15], [170.45, -5.52], [168.07, -5.42], [168.62, -4.82], [167.62, -4.7], [167.65, -1.8], [166.15, 0.17], [165.9, 1.5], [165.15, 2.43], [164.83, 3.55], [163.77, 5.9], [166.07, 7.13], [163.75, 9.2], [162.97, 11.68], [160.92, 13.92], [156.38, 15.08], [153.52, 15.18], [151.15, 15.32], [150.88, 15.45], [147.6, 15.55], [145.37, 15.63], [141.32, 16.63], [138.32, 17.15], [135.38, 18.83], [131.33, 19.5], [128.48, 20.63], [121.33, 21.78], [118.48, 22.1], [115.78, 22.28]]}}, {"type": "Feature", "properties": {"ship": "Earl Of Mansfield", "company": "EIC", "power": "uk", "date_start": "1790-01-10", "date_end": "1790-06-19", "FromYear": 1790, "ToYear": 1790, "size": 2504}, "geometry": {"type": "LineString", "coordinates": [[104.83, -7.05], [102.67, -7.47], [101.3, -7.23], [100.93, -6.8], [100.7, -6.33], [100.32, -5.95], [100.32, -5.75], [100.1, -5.72], [99.95, -6.35], [99.72, -6.65], [98.95, -8.93], [97.35, -9.42], [95.85, -9.37], [93.45, -9.77], [91.93, -10.55], [89.67, -11.22], [88.8, -11.3], [84.8, -12.15], [84.23, -12.92], [82.67, -13.88], [80.4, -14.67], [79.97, -15.82], [77.2, -16.7], [75.28, -18.27], [73.53, -19.0], [71.43, -19.5], [69.92, -19.83], [68.5, -20.33], [64.18, -22.08], [61.87, -22.82], [59.6, -24.0], [57.52, -24.75], [56.06, -25.43], [54.08, -26.73], [51.89, -27.83], [49.79, -28.3], [47.2, -28.88], [45.42, -29.58], [43.53, -30.88], [41.71, -31.9], [39.3, -32.5], [38.33, -32.57], [35.94, -32.65], [33.3, -33.2], [30.74, -34.37], [29.0, -34.35], [27.67, -34.95], [22.67, -35.33], [21.45, -35.18], [19.55, -35.03], [16.88, -33.67], [13.7, -31.6], [11.62, -30.1], [10.15, -28.58], [7.5, -27.32], [6.17, -26.35], [4.83, -25.03], [2.55, -23.25], [0.48, -21.53], [-1.13, -20.0], [-2.38, -18.63], [-3.37, -17.02], [-4.25, -16.08], [-5.4, -16.0], [-5.92, -15.52], [-7.55, -14.2], [-10.53, -11.15], [-11.67, -9.83], [-12.6, -8.82], [-13.13, -7.87], [-13.57, -7.18], [-15.07, -6.2], [-15.93, -4.83], [-16.63, -3.23], [-17.33, -1.48], [-17.4, -0.3], [-17.3, -0.1], [-17.47, 0.47], [-17.68, 0.72], [-17.53, 0.98], [-17.85, 1.27], [-18.12, 1.17], [-18.62, 1.23], [-18.52, 1.42], [-17.37, 2.03], [-16.65, 3.1], [-16.35, 3.3], [-17.45, 3.72], [-18.5, 3.95], [-17.5, 4.03], [-18.68, 4.45], [-18.15, 5.12], [-18.73, 5.25], [-19.57, 5.75], [-20.65, 5.65], [-21.13, 6.0], [-21.4, 6.12], [-22.0, 6.22], [-22.67, 6.35], [-23.42, 6.75], [-24.38, 7.55], [-28.53, 8.75], [-29.87, 9.9], [-32.33, 12.43], [-33.52, 14.12], [-34.85, 15.8], [-35.75, 17.47], [-36.32, 18.47], [-36.97, 19.13], [-37.05, 19.92], [-37.63, 21.12], [-37.45, 23.0], [-37.45, 24.23], [-36.9, 25.35], [-35.57, 27.0], [-33.83, 28.6], [-31.97, 29.8], [-30.58, 30.75], [-30.45, 31.18], [-30.37, 31.8], [-29.83, 32.43], [-28.57, 33.58], [-25.33, 35.3], [-22.92, 35.13], [-20.4, 35.33], [-18.72, 35.58], [-16.8, 36.27], [-15.35, 36.85], [-14.52, 37.5], [-13.53, 37.77], [-12.28, 38.25], [-13.85, 39.33], [-15.83, 40.62], [-17.57, 41.88], [-20.77, 42.73], [-21.4, 42.87], [-20.29, 42.9], [-20.47, 43.4], [-19.88, 43.33], [-18.25, 43.23], [-11.62, 45.42], [-11.33, 45.18], [-9.91, 45.32], [-10.29, 45.95], [-10.6, 47.52], [-9.55, 49.0], [-8.71, 49.77], [-7.36, 49.88], [-6.0, 49.75], [-3.88, 49.65]]}}, {"type": "Feature", "properties": {"ship": "La Diane", "company": null, "power": "fr", "date_start": "1755-03-15", "date_end": "1755-04-30", "FromYear": 1755, "ToYear": 1755, "size": 1336}, "geometry": {"type": "LineString", "coordinates": [[-5.78, 45.93], [-5.67, 45.93], [-7.05, 46.28], [-6.78, 46.28], [-8.33, 45.1], [-7.92, 45.1], [-9.05, 44.92], [-8.58, 44.92], [-10.98, 44.92], [-10.42, 44.92], [-13.73, 45.33], [-12.98, 45.33], [-15.47, 45.15], [-14.6, 45.15], [-17.03, 44.48], [-16.07, 44.48], [-18.25, 44.97], [-17.22, 44.97], [-19.18, 45.1], [-18.08, 45.22], [-19.7, 45.7], [-18.55, 45.82], [-21.72, 46.82], [-20.5, 46.72], [-22.42, 47.72], [-23.8, 47.72], [-22.45, 48.78], [-23.83, 49.07], [-25.75, 50.5], [-24.25, 49.67], [-26.28, 49.42], [-24.73, 49.48], [-25.97, 48.22], [-24.43, 48.37], [-26.57, 48.6], [-25.0, 48.6], [-25.9, 49.47], [-24.37, 49.32], [-26.72, 48.8], [-25.13, 48.97], [-28.92, 47.8], [-27.18, 47.87], [-30.1, 46.47], [-28.3, 46.82], [-29.68, 45.33], [-27.9, 45.37], [-30.45, 45.03], [-28.55, 45.08], [-30.82, 44.58], [-28.97, 44.92], [-31.5, 44.75], [-29.6, 44.75], [-30.37, 45.72], [-28.63, 45.72], [-30.55, 45.43], [-28.7, 45.88], [-31.37, 46.27], [-29.47, 46.42], [-31.77, 46.5], [-29.85, 46.6], [-31.53, 46.73], [-29.63, 46.63], [-31.58, 46.43], [-29.73, 46.43], [-31.7, 46.55], [-29.8, 46.45], [-31.9, 46.53], [-30.07, 46.52], [-33.26, 46.15], [-31.43, 46.25], [-35.33, 45.5], [-33.1, 45.57], [-36.7, 45.05], [-38.75, 44.98], [-41.86, 44.8], [-39.67, 44.83], [-42.83, 43.52], [-40.63, 43.6], [-44.16, 44.27], [-41.95, 44.2], [-47.96, 45.07], [-49.67, 45.27], [-47.27, 45.35], [-51.04, 45.65], [-48.62, 45.65], [-51.77, 45.2], [-51.43, 45.32], [-53.07, 45.37], [-52.73, 45.33], [-57.28, 45.75], [-59.5, 46.23]]}}, {"type": "Feature", "properties": {"ship": "L'Etoile", "company": null, "power": "fr", "date_start": "1787-12-29", "date_end": "1788-02-17", "FromYear": 1787, "ToYear": 1788, "size": 1330}, "geometry": {"type": "LineString", "coordinates": [[-7.67, 47.37], [-8.54, 47.52], [-8.97, 46.8], [-12.82, 44.92], [-10.9, 43.72], [-11.89, 42.35], [-13.05, 40.63], [-15.25, 39.02], [-17.09, 37.92], [-18.92, 36.4], [-22.75, 34.63], [-23.07, 32.72], [-25.17, 31.13], [-26.64, 29.97], [-27.8, 29.2], [-29.19, 28.13], [-30.3, 27.6], [-31.42, 27.35], [-32.8, 27.0], [-33.44, 26.97], [-34.7, 26.37], [-35.42, 25.63], [-36.15, 24.67], [-37.12, 23.23], [-38.1, 22.4], [-39.45, 21.53], [-40.47, 20.65], [-41.57, 19.98], [-41.89, 19.77], [-41.85, 19.17], [-42.55, 18.88], [-43.69, 18.05], [-45.1, 16.95], [-46.44, 16.07], [-48.44, 15.47], [-50.05, 15.08], [-51.27, 14.98], [-52.77, 14.73], [-54.52, 14.6], [-56.32, 14.42], [-59.17, 14.42], [-72.64, 21.77], [-71.92, 23.2], [-71.22, 23.52], [-70.54, 23.77], [-69.6, 23.52], [-69.59, 23.78], [-69.77, 24.55], [-68.34, 25.65], [-67.6, 25.92], [-68.15, 27.43], [-67.09, 28.97], [-65.29, 30.53], [-64.62, 30.4], [-62.5, 31.08], [-59.94, 31.4], [-58.94, 32.12], [-56.25, 34.57], [-54.27, 33.97], [-51.67, 33.73], [-50.09, 33.78], [-49.2, 34.05], [-48.35, 33.77], [-47.34, 32.88], [-46.07, 32.67], [-44.07, 33.27], [-43.52, 33.5], [-44.39, 34.38], [-43.74, 36.22], [-42.04, 38.1], [-41.04, 39.17], [-39.27, 41.57], [-35.5, 42.65], [-33.77, 43.32], [-30.47, 44.6], [-26.59, 45.7], [-24.39, 46.73], [-20.09, 46.8], [-16.79, 46.13], [-13.49, 45.6], [-12.29, 44.93], [-11.95, 44.77], [-9.15, 44.22], [-9.09, 43.62], [-6.97, 44.92], [-4.2, 46.47], [-2.8, 46.77]]}}, {"type": "Feature", "properties": {"ship": "La Danaé", "company": null, "power": "fr", "date_start": "1765-07-17", "date_end": "1766-08-25", "FromYear": 1765, "ToYear": 1766, "size": 1043}, "geometry": {"type": "LineString", "coordinates": [[-62.44, 18.8], [-62.44, 18.8], [-62.49, 20.65], [-62.49, 20.65], [-62.44, 22.68], [-62.44, 22.68], [-62.09, 24.53], [-62.09, 24.53], [-61.35, 26.58], [-61.35, 26.58], [-60.24, 28.75], [-60.24, 28.75], [-58.7, 30.33], [-58.7, 30.33], [-57.29, 32.27], [-57.29, 32.27], [-56.0, 33.83], [-56.0, 33.83], [-55.65, 34.42], [-55.65, 34.42], [-55.04, 35.05], [-55.04, 35.05], [-54.49, 34.92], [-54.49, 34.92], [-53.84, 35.07], [-53.84, 35.07], [-52.97, 35.95], [-52.97, 35.95], [-52.65, 36.25], [-52.65, 36.25], [-52.49, 36.48], [-52.49, 36.48], [-51.25, 37.58], [-51.25, 37.58], [-48.8, 39.32], [-48.8, 39.32], [-46.4, 41.32], [-46.4, 41.32], [-42.14, 42.65], [-42.14, 42.65], [-39.3, 43.67], [-39.24, 43.67], [-36.44, 44.35], [-36.44, 44.35], [-34.12, 44.32], [-34.12, 44.32], [-32.97, 45.18], [-32.9, 45.18], [-30.47, 46.52], [-30.47, 46.52], [-27.44, 46.97], [-27.44, 46.97], [-26.35, 46.87], [-26.35, 46.87], [-23.44, 47.72], [-23.44, 47.72], [-20.92, 47.75], [-20.92, 47.75], [-18.3, 47.82], [-18.3, 47.82], [-16.1, 47.98], [-16.1, 47.98], [-15.67, 48.23], [-15.67, 48.23], [-15.0, 48.42], [-15.0, 48.42], [-14.34, 48.87], [-14.34, 48.87], [-13.59, 49.17], [-13.59, 49.17], [-13.6, 48.87], [-13.6, 48.87], [-11.19, 48.72], [-11.19, 48.72], [-7.27, 48.05], [-7.27, 48.05], [-4.99, 48.45], [-4.99, 48.45]]}}, {"type": "Feature", "properties": {"ship": "La Danaé", "company": null, "power": "fr", "date_start": "1765-02-12", "date_end": "1765-03-16", "FromYear": 1765, "ToYear": 1765, "size": 869}, "geometry": {"type": "LineString", "coordinates": [[-7.1, 47.12], [-7.0, 47.12], [-7.09, 45.63], [-7.09, 45.63], [-8.67, 44.58], [-8.67, 44.55], [-10.97, 42.75], [-10.97, 42.75], [-13.25, 41.42], [-13.25, 41.42], [-12.95, 40.2], [-12.95, 40.2], [-12.1, 39.6], [-12.1, 39.6], [-13.0, 37.55], [-13.0, 37.55], [-13.47, 35.7], [-13.47, 35.7], [-14.67, 33.78], [-14.67, 33.78], [-18.09, 32.42], [-18.05, 32.42], [-20.1, 30.92], [-20.1, 30.92], [-22.34, 29.27], [-22.34, 29.27], [-25.5, 27.98], [-25.65, 27.98], [-26.95, 26.78], [-26.95, 26.78], [-29.42, 25.55], [-29.42, 25.55], [-32.5, 23.97], [-32.5, 23.97], [-35.59, 22.45], [-35.59, 22.45], [-37.82, 21.63], [-37.82, 21.63], [-38.49, 21.27], [-38.49, 21.27], [-38.7, 21.07], [-38.7, 21.07], [-39.74, 20.53], [-39.74, 20.53], [-40.97, 19.73], [-40.97, 19.73], [-43.05, 18.48], [-43.05, 18.48], [-45.75, 17.68], [-45.75, 17.68], [-47.15, 17.27], [-47.15, 17.27], [-47.59, 16.93], [-47.59, 16.93], [-49.3, 16.03], [-49.3, 16.03], [-51.5, 14.78], [-51.5, 14.78], [-54.34, 14.5], [-54.34, 14.5], [-57.5, 14.57], [-57.5, 14.57], [-60.35, 14.43], [-60.35, 14.43], [-61.54, 14.55], [-61.54, 14.55]]}}, {"type": "Feature", "properties": {"ship": "La Elourdie", "company": null, "power": "fr", "date_start": "1775-11-23", "date_end": "1776-03-27", "FromYear": 1775, "ToYear": 1776, "size": 950}, "geometry": {"type": "LineString", "coordinates": [[-4.64, 46.43], [-7.22, 45.73], [-8.89, 44.72], [-10.29, 44.73], [-10.6, 44.3], [-10.89, 44.33], [-10.85, 44.73], [-10.94, 45.45], [-11.09, 45.7], [-11.57, 45.93], [-11.89, 46.17], [-12.57, 45.67], [-13.19, 45.05], [-13.9, 43.87], [-14.6, 41.82], [-15.17, 39.37], [-15.6, 37.82], [-16.34, 36.42], [-16.77, 35.52], [-18.34, 34.35], [-21.17, 33.57], [-21.95, 34.02], [-23.59, 34.38], [-23.27, 34.02], [-25.14, 33.92], [-26.52, 34.37], [-26.84, 32.98], [-27.07, 32.17], [-27.77, 31.23], [-29.44, 29.87], [-30.62, 29.22], [-31.35, 28.78], [-32.95, 27.53], [-36.2, 26.13], [-38.89, 24.9], [-41.37, 23.85], [-43.34, 23.75], [-45.54, 22.27], [-48.09, 21.33], [-51.32, 20.68], [-54.09, 20.23], [-56.5, 19.87], [-59.05, 19.58], [-60.62, 19.62], [-62.49, 19.65], [-64.14, 19.7], [-65.64, 19.67], [-67.0, 19.6], [-68.09, 19.5], [-69.27, 19.6], [-71.37, 22.65], [-69.65, 23.68], [-68.15, 23.73], [-66.42, 23.62], [-64.85, 23.35], [-63.85, 22.07], [-62.85, 21.38], [-61.9, 20.18], [-61.17, 18.91], [-60.64, 17.63], [-60.87, 16.72], [-63.27, 19.25], [-64.62, 19.6], [-65.84, 19.65], [-67.6, 19.63], [-68.59, 19.62]]}}, {"type": "Feature", "properties": {"ship": "Le Vicomte De Choiseuil", "company": null, "power": "fr", "date_start": "1771-05-07", "date_end": "1771-07-10", "FromYear": 1771, "ToYear": 1771, "size": 913}, "geometry": {"type": "LineString", "coordinates": [[-1.2, 46.25], [-3.49, 46.92], [-3.82, 46.83], [-4.8, 46.25], [-5.19, 45.45], [-6.24, 45.4], [-7.87, 45.57], [-8.62, 45.65], [-9.55, 45.55], [-10.15, 45.52], [-12.1, 45.62], [-13.5, 44.83], [-14.97, 44.03], [-15.29, 43.82], [-16.79, 43.77], [-17.79, 43.88], [-18.8, 44.02], [-19.25, 44.12], [-19.89, 44.95], [-19.72, 44.7], [-20.29, 44.93], [-20.99, 45.72], [-21.47, 45.12], [-21.57, 45.18], [-22.07, 44.72], [-23.39, 44.92], [-25.09, 45.03], [-26.85, 44.88], [-28.62, 44.63], [-30.24, 44.47], [-31.89, 44.05], [-32.44, 43.15], [-33.12, 43.65], [-33.77, 43.28], [-33.94, 42.97], [-34.22, 43.62], [-34.99, 44.28], [-35.67, 44.95], [-35.8, 45.37], [-36.54, 45.48], [-38.37, 45.43], [-40.09, 45.6], [-40.79, 45.92], [-41.34, 44.9], [-42.02, 43.98], [-43.07, 44.07], [-44.05, 44.23], [-45.17, 44.73], [-45.77, 45.0], [-46.39, 45.2], [-46.9, 46.25], [-48.02, 46.9], [-48.65, 46.05], [-48.77, 47.03], [-50.29, 47.2], [-51.52, 47.42], [-52.07, 45.95], [-51.82, 45.57], [-54.15, 45.48], [-55.6, 45.68], [-56.19, 46.6], [-56.03, 47.07], [-56.12, 46.93], [-56.17, 47.0], [-55.99, 47.0]]}}, {"type": "Feature", "properties": {"ship": "La Belette", "company": null, "power": "fr", "date_start": "1784-04-20", "date_end": "1784-10-19", "FromYear": 1784, "ToYear": 1784, "size": 1614}, "geometry": {"type": "LineString", "coordinates": [[-6.72, 35.58], [-10.0, 35.8], [-12.22, 36.33], [-14.52, 36.2], [-15.79, 35.52], [-17.77, 36.67], [-18.6, 37.52], [-19.87, 38.62], [-21.62, 39.62], [-23.85, 40.4], [-25.74, 40.5], [-26.37, 40.83], [-27.59, 41.53], [-29.04, 41.5], [-30.37, 41.6], [-30.85, 41.32], [-31.5, 41.37], [-32.79, 41.1], [-33.25, 41.32], [-34.14, 41.13], [-35.97, 42.88], [-36.54, 44.3], [-36.97, 44.03], [-40.27, 44.73], [-43.92, 45.47], [-47.34, 45.4], [-47.97, 45.47], [-51.49, 45.27], [-50.15, 45.85], [-49.75, 46.33], [-52.64, 46.35], [-53.07, 46.27], [-51.59, 47.37], [-52.73, 46.9], [-53.89, 46.43], [-55.6, 46.38], [-55.65, 45.17], [-55.82, 46.07], [-58.62, 46.77], [-58.87, 47.15], [-53.32, 45.58], [-49.5, 44.83], [-42.3, 44.58], [-43.69, 45.08], [-40.72, 44.67], [-35.94, 45.5], [-36.44, 44.63], [-27.77, 45.22], [-24.97, 46.67], [-23.87, 47.77], [-23.15, 47.93], [-17.64, 47.87], [-17.04, 48.12], [-12.19, 48.2], [-10.87, 48.03], [-10.89, 48.07], [-10.92, 48.15], [-10.75, 47.98], [-10.27, 47.98], [-9.94, 48.18], [-9.27, 48.15], [-8.97, 47.72], [-9.35, 48.27], [-9.14, 47.75], [-7.89, 48.28]]}}, {"type": "Feature", "properties": {"ship": "La Nourrice", "company": null, "power": "fr", "date_start": "1766-11-06", "date_end": "1767-02-03", "FromYear": 1766, "ToYear": 1767, "size": 996}, "geometry": {"type": "LineString", "coordinates": [[-3.67, 45.35], [-4.74, 45.03], [-6.07, 44.58], [-8.24, 43.93], [-11.07, 42.8], [-12.49, 41.13], [-13.12, 40.15], [-14.17, 38.15], [-15.8, 35.5], [-15.62, 33.28], [-16.94, 32.03], [-17.0, 30.25], [-16.09, 29.0], [-19.67, 26.58], [-21.87, 25.13], [-23.9, 23.75], [-25.89, 22.5], [-27.75, 21.7], [-29.12, 20.58], [-30.29, 19.5], [-31.6, 18.2], [-33.24, 15.98], [-34.9, 13.72], [-35.32, 12.1], [-37.8, 10.33], [-38.99, 8.38], [-40.54, 5.67], [-41.82, 4.22], [-43.54, 3.6], [-45.4, 2.42], [-47.3, 2.28], [-49.25, 2.7], [-50.74, 3.73], [-51.12, 4.47], [-52.3, 4.91], [-53.12, 6.9], [-53.92, 8.9], [-55.77, 11.33], [-57.87, 13.57], [-59.85, 15.52], [-61.1, 15.72], [-63.29, 16.8], [-66.02, 17.57], [-67.67, 18.2], [-68.69, 19.47], [-71.12, 20.07], [-71.66, 20.0], [-72.19, 19.74], [-73.4, 19.8], [-72.89, 19.18], [-72.37, 18.54], [-72.6, 18.73], [-72.77, 18.92], [-72.74, 19.11], [-73.39, 20.5], [-72.95, 20.57], [-72.87, 20.67], [-72.85, 20.84], [-72.84, 21.02], [-72.79, 20.85], [-72.27, 20.67], [-72.2, 20.27], [-72.19, 19.74]]}}, {"type": "Feature", "properties": {"ship": "La Graciense", "company": null, "power": "fr", "date_start": "1788-05-18", "date_end": "1788-09-24", "FromYear": 1788, "ToYear": 1788, "size": 962}, "geometry": {"type": "LineString", "coordinates": [[-2.34, 46.63], [-7.0, 46.3], [-8.12, 43.77], [-9.05, 43.48], [-9.77, 41.8], [-9.49, 38.95], [-7.97, 36.7], [-7.02, 36.28], [-2.67, 36.5], [-1.17, 37.23], [1.18, 37.53], [-0.42, 37.55], [-0.04, 37.8], [0.26, 37.78], [-0.22, 37.25], [0.01, 37.48], [-0.17, 37.52], [0.33, 37.98], [0.2, 37.87], [-0.12, 37.48], [-0.04, 37.32], [-0.22, 37.45], [0.45, 36.62], [0.96, 37.3], [1.58, 36.92], [0.85, 36.9], [2.03, 37.0], [2.21, 37.5], [2.11, 37.57], [2.55, 37.57], [3.95, 38.98], [5.71, 38.87], [8.25, 37.8], [10.3, 36.97], [10.36, 37.25], [11.01, 37.28], [12.03, 36.97], [12.26, 36.85], [13.5, 36.38], [13.98, 36.27], [14.41, 36.05], [13.93, 36.8], [12.9, 36.53], [12.2, 36.75], [11.98, 37.25], [10.01, 38.13], [9.01, 38.78], [7.91, 39.08], [7.41, 41.22], [7.15, 41.42], [7.26, 42.02], [7.0, 42.88], [7.45, 42.93], [7.08, 42.93], [7.16, 42.33], [7.13, 43.38], [6.96, 42.73], [6.98, 42.67], [7.88, 42.85], [9.3, 42.82], [9.1, 42.85], [8.93, 43.08], [7.1, 43.17]]}}, {"type": "Feature", "properties": {"ship": "Le Desiré", "company": null, "power": "fr", "date_start": "1777-03-31", "date_end": "1777-05-30", "FromYear": 1777, "ToYear": 1777, "size": 905}, "geometry": {"type": "LineString", "coordinates": [[-4.84, 49.13], [-7.55, 47.95], [-9.89, 46.15], [-12.09, 45.2], [-13.99, 43.8], [-16.22, 42.23], [-18.07, 40.83], [-18.99, 39.87], [-17.97, 39.83], [-18.6, 40.18], [-18.14, 40.13], [-18.02, 39.72], [-18.29, 39.58], [-19.02, 39.55], [-18.14, 39.12], [-17.64, 38.12], [-17.82, 36.75], [-17.7, 36.03], [-18.07, 36.12], [-18.62, 36.73], [-18.42, 35.87], [-18.49, 34.9], [-18.72, 34.12], [-20.25, 33.23], [-20.25, 32.62], [-20.8, 32.08], [-21.64, 34.45], [-22.4, 30.65], [-23.89, 29.68], [-24.75, 28.68], [-25.94, 27.75], [-27.24, 26.95], [-28.95, 26.07], [-30.6, 24.5], [-31.84, 23.82], [-32.67, 23.33], [-33.15, 23.02], [-34.32, 22.37], [-35.42, 21.68], [-36.69, 20.9], [-38.15, 20.08], [-39.25, 19.38], [-39.82, 19.13], [-40.17, 19.02], [-40.52, 18.87], [-41.67, 18.17], [-43.04, 17.58], [-44.82, 15.72], [-46.67, 16.32], [-48.6, 15.33], [-50.14, 16.33], [-51.05, 16.27], [-53.87, 16.08], [-54.82, 15.83], [-57.27, 15.9], [-59.07, 15.83], [-60.6, 15.8], [-62.39, 15.8], [-63.89, 15.53], [-64.39, 15.68]]}}, {"type": "Feature", "properties": {"ship": "Inconnu-2", "company": null, "power": "fr", "date_start": "1837-01-19", "date_end": "1837-04-08", "FromYear": 1837, "ToYear": 1837, "size": 1058}, "geometry": {"type": "LineString", "coordinates": [[5.91, 43.03], [5.41, 42.08], [5.25, 42.38], [3.85, 41.9], [2.76, 41.03], [1.68, 38.9], [-0.27, 37.32], [-1.34, 37.12], [-1.65, 36.72], [-1.79, 36.37], [-6.1, 35.88], [-9.97, 35.2], [-12.72, 34.53], [-12.07, 34.0], [-12.6, 33.27], [-14.04, 32.32], [-14.52, 32.12], [-14.79, 31.87], [-15.32, 31.07], [-15.69, 29.5], [-16.24, 24.47], [-19.02, 21.62], [-18.77, 17.88], [-18.12, 13.35], [-18.92, 11.52], [-19.02, 10.58], [-19.95, 8.77], [-20.7, 7.1], [-21.77, 5.13], [-21.99, 3.7], [-22.05, 2.93], [-22.15, 2.32], [-22.83, 1.25], [-23.52, 0.07], [-24.22, -0.32], [-25.3, -1.27], [-26.5, -5.32], [-27.79, -6.33], [-28.37, -9.4], [-28.52, -12.18], [-28.64, -15.48], [-28.65, -17.5], [-29.0, -19.73], [-28.57, -22.03], [-25.12, -24.02], [-24.12, -24.68], [-23.15, -27.52], [-22.34, -28.32], [-17.12, -27.65], [-15.52, -27.27], [-13.49, -27.4], [-10.27, -28.8], [-7.47, -30.78], [-3.99, -32.98], [-2.34, -33.48], [0.16, -34.33], [3.93, -37.35], [9.33, -39.17], [13.06, -39.02], [16.81, -34.47]]}}, {"type": "Feature", "properties": {"ship": "Le Parham", "company": null, "power": "fr", "date_start": "1754-05-06", "date_end": "1754-07-19", "FromYear": 1754, "ToYear": 1754, "size": 955}, "geometry": {"type": "LineString", "coordinates": [[-1.9, 46.05], [-3.33, 46.0], [-3.78, 45.58], [-4.5, 45.67], [-4.77, 46.28], [-4.12, 45.62], [-3.97, 46.05], [-4.42, 45.17], [-5.75, 45.23], [-8.97, 45.63], [-10.72, 45.95], [-12.37, 45.9], [-13.02, 45.78], [-12.68, 46.33], [-12.8, 47.05], [-12.65, 47.12], [-13.07, 46.65], [-14.07, 45.83], [-15.97, 45.33], [-18.25, 45.0], [-20.12, 44.5], [-21.0, 45.17], [-21.67, 44.1], [-22.12, 44.13], [-22.97, 44.3], [-23.68, 44.58], [-25.25, 45.03], [-26.07, 45.02], [-28.18, 45.52], [-29.07, 45.95], [-31.45, 46.27], [-32.97, 46.63], [-33.2, 46.22], [-33.48, 46.05], [-34.02, 44.87], [-34.43, 45.38], [-35.12, 45.52], [-36.03, 46.63], [-37.23, 46.92], [-37.35, 46.58], [-37.8, 45.92], [-38.95, 45.45], [-40.37, 44.47], [-42.08, 44.73], [-41.55, 43.33], [-42.05, 43.57], [-41.48, 44.32], [-44.73, 45.15], [-43.73, 45.95], [-47.93, 45.28], [-49.55, 45.85], [-49.4, 45.6], [-49.63, 45.97], [-49.88, 45.93], [-52.13, 45.98], [-53.5, 46.45], [-53.83, 46.55], [-54.33, 46.27], [-53.48, 46.05]]}}, {"type": "Feature", "properties": {"ship": "L'Experiment", "company": null, "power": "fr", "date_start": "1788-04-30", "date_end": "1788-09-09", "FromYear": 1788, "ToYear": 1788, "size": 945}, "geometry": {"type": "LineString", "coordinates": [[-6.89, 48.17], [-10.6, 47.77], [-14.35, 47.5], [-15.95, 47.05], [-17.64, 46.72], [-18.54, 46.43], [-21.04, 46.87], [-22.3, 47.27], [-24.2, 47.58], [-25.97, 48.33], [-27.0, 49.2], [-28.1, 49.77], [-28.6, 49.22], [-29.42, 48.43], [-31.45, 47.78], [-32.35, 46.7], [-32.3, 45.83], [-32.4, 45.27], [-32.29, 44.97], [-33.59, 44.5], [-35.4, 44.47], [-36.82, 43.13], [-38.89, 42.62], [-39.39, 42.82], [-41.14, 41.78], [-41.89, 42.5], [-42.39, 43.03], [-44.19, 42.78], [-45.37, 42.18], [-45.3, 41.85], [-46.84, 42.93], [-48.77, 44.52], [-50.84, 44.25], [-50.89, 44.17], [-51.45, 44.25], [-49.65, 44.33], [-50.67, 44.2], [-52.12, 44.38], [-53.49, 43.38], [-55.0, 45.0], [-55.99, 46.07], [-56.49, 46.5], [-55.79, 46.73], [-55.67, 46.3], [-55.12, 45.58], [-55.35, 45.03], [-56.14, 45.5], [-56.99, 45.92], [-59.34, 47.42], [-52.74, 50.83], [-51.45, 49.35], [-56.79, 47.17], [-51.99, 45.85], [-54.39, 46.28], [-56.49, 45.98], [-56.55, 46.97], [-56.15, 46.58]]}}, {"type": "Feature", "properties": {"ship": "La Desirée", "company": null, "power": "fr", "date_start": "1787-11-12", "date_end": "1788-01-13", "FromYear": 1787, "ToYear": 1788, "size": 926}, "geometry": {"type": "LineString", "coordinates": [[-4.42, 46.93], [-5.19, 45.55], [-7.49, 45.03], [-10.5, 44.27], [-12.32, 43.93], [-13.27, 43.5], [-13.67, 43.73], [-13.67, 43.88], [-13.82, 45.95], [-13.75, 43.9], [-13.82, 42.63], [-14.34, 42.53], [-12.77, 41.97], [-13.14, 41.23], [-15.07, 39.3], [-16.29, 38.75], [-16.54, 39.1], [-17.35, 39.77], [-16.32, 39.67], [-16.84, 38.68], [-17.42, 37.42], [-16.95, 36.5], [-17.09, 35.03], [-16.67, 34.27], [-16.27, 33.22], [-15.87, 33.2], [-17.67, 33.22], [-17.14, 32.6], [-16.79, 31.6], [-15.84, 30.95], [-16.45, 29.53], [-18.84, 29.22], [-19.19, 27.15], [-18.67, 26.92], [-19.17, 27.17], [-20.49, 24.67], [-21.6, 22.8], [-23.26, 21.17], [-25.38, 20.2], [-27.48, 19.47], [-29.63, 18.98], [-32.18, 19.93], [-34.89, 17.0], [-37.42, 16.07], [-39.69, 15.42], [-41.96, 14.72], [-43.62, 14.55], [-46.72, 14.28], [-49.61, 14.15], [-52.51, 14.48], [-55.64, 14.65], [-57.96, 14.42], [-60.5, 14.45], [-61.07, 14.59]]}}, {"type": "Feature", "properties": {"ship": "Le Vicomte De Choiseuil", "company": null, "power": "fr", "date_start": "1771-12-09", "date_end": "1772-02-07", "FromYear": 1771, "ToYear": 1772, "size": 824}, "geometry": {"type": "LineString", "coordinates": [[-55.07, 46.37], [-54.17, 45.58], [-53.42, 45.63], [-52.42, 45.48], [-51.22, 44.72], [-51.62, 45.02], [-50.84, 45.23], [-49.17, 45.17], [-46.64, 45.63], [-43.47, 45.2], [-41.44, 45.23], [-39.14, 45.45], [-36.87, 45.28], [-35.44, 45.17], [-32.79, 44.85], [-30.74, 44.83], [-29.6, 44.77], [-28.57, 45.35], [-27.47, 45.95], [-26.24, 46.58], [-25.3, 48.32], [-24.85, 49.03], [-25.22, 48.92], [-26.02, 48.37], [-26.67, 47.92], [-26.95, 47.35], [-26.95, 47.32], [-26.84, 47.03], [-26.39, 46.95], [-26.89, 46.22], [-27.04, 46.5], [-26.12, 46.22], [-25.34, 46.42], [-23.69, 46.58], [-21.25, 46.58], [-18.84, 46.58], [-15.87, 46.17], [-13.29, 46.32], [-12.49, 45.87], [-10.75, 45.3], [-9.55, 45.18], [-8.62, 45.18], [-7.49, 45.53], [-6.49, 45.9], [-6.25, 45.65], [-5.49, 46.6], [-4.89, 47.03], [-3.9, 47.33], [-2.87, 46.93], [-2.39, 46.72], [-2.02, 45.9]]}}, {"type": "Feature", "properties": {"ship": "Le Oiseau", "company": null, "power": "fr", "date_start": "1775-10-01", "date_end": "1775-11-19", "FromYear": 1775, "ToYear": 1775, "size": 716}, "geometry": {"type": "LineString", "coordinates": [[-3.84, 47.58], [-4.55, 47.27], [-4.69, 46.6], [-6.4, 45.83], [-7.02, 45.33], [-8.0, 45.53], [-8.64, 45.82], [-10.49, 45.43], [-10.72, 45.93], [-10.67, 45.07], [-11.89, 45.87], [-13.15, 45.37], [-13.32, 44.37], [-14.39, 42.47], [-15.69, 40.45], [-17.4, 38.73], [-19.07, 36.93], [-20.59, 35.43], [-21.75, 34.1], [-23.04, 32.77], [-23.62, 32.55], [-24.69, 32.3], [-26.07, 32.4], [-26.47, 32.63], [-25.45, 32.22], [-24.62, 31.48], [-24.89, 30.2], [-24.75, 29.38], [-26.27, 28.53], [-27.22, 27.67], [-28.6, 26.33], [-30.52, 25.18], [-32.54, 23.98], [-34.67, 22.73], [-36.44, 21.77], [-38.2, 20.8], [-38.97, 20.48], [-39.54, 20.18], [-40.12, 19.85], [-41.12, 19.37], [-43.37, 18.5], [-45.19, 17.63], [-47.09, 16.57], [-49.02, 15.65], [-50.6, 15.03], [-52.27, 14.93], [-54.24, 14.42], [-56.39, 14.55], [-58.5, 14.6], [-61.07, 14.59]]}}, {"type": "Feature", "properties": {"ship": "Le Vaillans", "company": null, "power": "fr", "date_start": "1773-03-24", "date_end": "1773-05-20", "FromYear": 1773, "ToYear": 1773, "size": 777}, "geometry": {"type": "LineString", "coordinates": [[-71.3, 23.37], [-69.47, 24.63], [-68.22, 24.8], [-66.92, 24.18], [-65.5, 23.97], [-64.02, 24.0], [-62.29, 23.6], [-60.99, 23.63], [-60.3, 23.92], [-59.99, 24.28], [-59.64, 25.08], [-59.39, 25.1], [-60.04, 26.55], [-60.57, 27.93], [-60.72, 28.63], [-60.64, 29.73], [-59.47, 31.73], [-57.67, 33.52], [-55.4, 34.93], [-52.74, 35.93], [-50.97, 36.63], [-49.94, 36.5], [-47.34, 37.93], [-44.39, 39.7], [-41.45, 41.58], [-39.15, 42.73], [-37.67, 44.05], [-37.14, 45.22], [-36.54, 46.5], [-35.39, 47.33], [-34.47, 48.4], [-35.15, 48.42], [-34.85, 48.35], [-33.42, 48.3], [-30.4, 48.15], [-26.4, 48.03], [-22.55, 48.07], [-21.07, 47.48], [-20.1, 47.43], [-18.15, 48.33], [-17.44, 49.17], [-17.27, 49.02], [-15.87, 48.68], [-12.37, 48.52], [-11.07, 48.48], [-10.72, 48.48], [-9.34, 48.63], [-7.22, 48.23], [-4.8, 48.22], [-4.35, 48.3]]}}, {"type": "Feature", "properties": {"ship": "Le Serin", "company": null, "power": "fr", "date_start": "1774-09-16", "date_end": "1774-11-05", "FromYear": 1774, "ToYear": 1774, "size": 761}, "geometry": {"type": "LineString", "coordinates": [[-71.57, 20.43], [-71.12, 20.93], [-70.19, 21.28], [-69.05, 22.73], [-68.22, 23.55], [-67.37, 25.6], [-65.8, 27.15], [-63.92, 28.35], [-62.34, 29.27], [-61.15, 29.7], [-60.82, 29.95], [-61.02, 30.08], [-60.5, 30.38], [-62.15, 31.52], [-62.42, 32.27], [-62.52, 33.13], [-61.7, 34.25], [-60.64, 34.8], [-61.67, 36.67], [-60.87, 37.92], [-59.64, 38.5], [-57.54, 37.97], [-56.24, 37.4], [-54.07, 37.7], [-50.75, 38.67], [-46.85, 39.92], [-43.17, 40.95], [-40.14, 42.08], [-39.04, 42.47], [-37.13, 43.17], [-32.89, 44.17], [-30.35, 46.28], [-27.5, 47.2], [-24.06, 47.78], [-18.97, 47.77], [-15.05, 47.87], [-12.51, 48.07], [-9.07, 48.6], [-7.37, 48.57], [-5.68, 48.63], [-5.96, 48.25], [-5.62, 47.82], [-6.0, 48.17], [-5.37, 48.73], [-5.57, 48.63], [-5.85, 49.05], [-5.79, 48.95], [-5.6, 48.5], [-5.09, 48.47], [-5.22, 48.0]]}}, {"type": "Feature", "properties": {"ship": "Le Aigle", "company": null, "power": "fr", "date_start": "1754-05-20", "date_end": "1754-08-15", "FromYear": 1754, "ToYear": 1754, "size": 794}, "geometry": {"type": "LineString", "coordinates": [[-6.59, 48.4], [-7.44, 48.38], [-7.45, 47.45], [-9.29, 47.82], [-10.04, 46.78], [-10.04, 45.47], [-11.1, 44.35], [-13.05, 43.73], [-14.17, 43.43], [-14.79, 42.78], [-15.5, 42.22], [-16.57, 42.23], [-17.57, 42.05], [-18.14, 41.9], [-18.72, 41.48], [-20.09, 41.55], [-21.34, 42.05], [-21.57, 42.27], [-23.14, 41.47], [-25.32, 40.77], [-26.05, 40.77], [-26.3, 40.27], [-26.3, 40.85], [-28.25, 41.28], [-28.49, 41.87], [-28.95, 41.72], [-29.77, 41.05], [-30.29, 40.88], [-31.14, 40.45], [-31.74, 40.93], [-32.57, 40.93], [-33.34, 40.8], [-34.67, 41.85], [-35.45, 42.97], [-36.94, 43.92], [-38.95, 44.13], [-41.74, 45.58], [-42.37, 45.77], [-47.19, 47.95], [-46.09, 46.85], [-46.7, 46.3], [-47.97, 45.25], [-47.97, 45.17], [-49.17, 44.9], [-50.54, 44.82], [-52.35, 45.75], [-53.04, 45.17], [-54.07, 46.43], [-54.3, 46.6], [-55.65, 46.2]]}}, {"type": "Feature", "properties": {"ship": "La Dedaigneuse", "company": null, "power": "fr", "date_start": "1775-11-22", "date_end": "1776-01-13", "FromYear": 1775, "ToYear": 1776, "size": 636}, "geometry": {"type": "LineString", "coordinates": [[-2.59, 47.0], [-4.89, 46.38], [-7.47, 45.65], [-9.02, 44.72], [-10.44, 44.72], [-10.87, 44.22], [-11.22, 44.47], [-11.07, 44.92], [-11.2, 45.4], [-11.62, 45.73], [-12.19, 45.97], [-12.42, 46.1], [-13.35, 46.1], [-14.14, 45.0], [-14.77, 43.93], [-16.09, 41.5], [-17.15, 39.05], [-17.67, 37.0], [-17.82, 34.72], [-18.0, 33.43], [-17.52, 33.25], [-17.9, 32.92], [-20.72, 32.75], [-20.5, 32.55], [-21.42, 32.28], [-23.72, 32.1], [-24.75, 32.1], [-24.54, 31.1], [-25.62, 30.17], [-27.32, 28.5], [-29.77, 27.45], [-32.35, 26.5], [-35.15, 25.48], [-37.9, 24.58], [-41.0, 23.47], [-43.7, 22.75], [-45.87, 22.32], [-48.65, 21.73], [-51.6, 21.13], [-54.4, 20.47], [-57.25, 19.95], [-59.47, 19.62], [-61.4, 19.7], [-63.42, 19.52], [-64.99, 19.47], [-66.67, 19.5], [-67.82, 19.42], [-69.4, 19.5], [-69.99, 19.93]]}}, {"type": "Feature", "properties": {"ship": "L'Etoile", "company": null, "power": "fr", "date_start": "1787-04-04", "date_end": "1787-05-24", "FromYear": 1787, "ToYear": 1787, "size": 753}, "geometry": {"type": "LineString", "coordinates": [[-6.17, 48.23], [-8.4, 47.55], [-10.17, 46.3], [-10.85, 44.93], [-12.9, 43.73], [-14.54, 42.23], [-16.37, 40.47], [-17.2, 39.55], [-16.82, 39.0], [-16.5, 38.33], [-18.1, 37.18], [-19.29, 36.23], [-19.27, 35.83], [-20.12, 35.08], [-21.4, 34.37], [-22.4, 33.35], [-22.99, 32.83], [-24.64, 31.65], [-26.94, 30.0], [-29.37, 28.67], [-32.17, 27.28], [-34.27, 26.38], [-35.89, 25.65], [-37.35, 25.15], [-38.94, 24.25], [-40.27, 23.72], [-40.95, 23.27], [-41.44, 22.73], [-41.95, 22.13], [-42.37, 22.03], [-43.19, 21.92], [-44.05, 21.65], [-46.27, 20.97], [-48.2, 20.63], [-49.64, 20.55], [-50.9, 20.53], [-51.57, 20.53], [-51.05, 20.62], [-53.1, 20.53], [-53.74, 20.5], [-56.1, 20.32], [-58.24, 20.17], [-59.84, 19.8], [-60.85, 19.7], [-62.17, 19.78], [-64.07, 19.35], [-66.15, 19.43], [-68.17, 19.28]]}}, {"type": "Feature", "properties": {"ship": "No. 3", "company": null, "power": "fr", "date_start": "1788-02-27", "date_end": "1788-04-16", "FromYear": 1788, "ToYear": 1788, "size": 748}, "geometry": {"type": "LineString", "coordinates": [[-4.25, 49.37], [-4.62, 49.68], [-7.35, 48.5], [-8.6, 47.92], [-10.99, 46.2], [-12.99, 44.58], [-14.12, 44.0], [-16.15, 44.18], [-15.77, 43.13], [-16.22, 42.62], [-17.2, 42.2], [-17.79, 42.03], [-17.47, 41.4], [-17.34, 39.88], [-17.34, 37.68], [-17.54, 36.88], [-18.15, 35.38], [-18.02, 34.83], [-18.9, 33.9], [-18.95, 33.55], [-19.39, 33.9], [-21.19, 33.63], [-24.29, 31.9], [-26.99, 31.03], [-29.59, 30.77], [-31.99, 30.83], [-33.72, 30.88], [-36.4, 30.95], [-39.95, 31.18], [-41.5, 30.03], [-44.17, 29.18], [-45.97, 29.17], [-47.12, 29.1], [-49.12, 28.77], [-50.35, 28.77], [-51.3, 28.03], [-53.34, 28.57], [-55.19, 29.78], [-56.02, 29.57], [-58.72, 30.0], [-60.9, 31.82], [-64.34, 32.08], [-64.92, 33.43], [-65.95, 34.0], [-66.67, 34.38], [-68.64, 36.23], [-71.7, 38.82], [-72.74, 39.52]]}}, {"type": "Feature", "properties": {"ship": "La Durance", "company": null, "power": "fr", "date_start": "1786-01-09", "date_end": "1786-02-27", "FromYear": 1786, "ToYear": 1786, "size": 648}, "geometry": {"type": "LineString", "coordinates": [[-62.44, 18.63], [-62.27, 20.37], [-61.87, 24.13], [-61.65, 23.77], [-61.25, 25.15], [-60.74, 26.07], [-60.57, 26.37], [-60.5, 26.53], [-60.29, 26.98], [-59.07, 28.1], [-57.67, 29.43], [-56.59, 30.33], [-55.35, 31.47], [-53.65, 32.88], [-52.09, 34.43], [-51.39, 35.0], [-50.27, 35.93], [-48.94, 36.8], [-47.52, 36.82], [-46.55, 36.87], [-46.54, 36.97], [-46.02, 37.07], [-44.49, 37.87], [-42.49, 39.53], [-41.47, 40.23], [-40.57, 40.98], [-37.99, 42.57], [-35.04, 43.5], [-33.97, 44.38], [-33.3, 44.77], [-32.8, 44.88], [-32.17, 44.58], [-31.57, 46.02], [-29.57, 46.77], [-27.52, 47.05], [-26.62, 47.58], [-25.8, 48.73], [-26.02, 47.92], [-23.99, 47.38], [-23.07, 47.0], [-22.05, 47.03], [-19.15, 47.35], [-15.69, 47.83], [-13.55, 48.13], [-9.89, 48.5], [-7.19, 48.77], [-5.04, 48.28]]}}, {"type": "Feature", "properties": {"ship": "La Fleur De Lys", "company": null, "power": "fr", "date_start": "1759-09-18", "date_end": "1759-11-07", "FromYear": 1759, "ToYear": 1759, "size": 680}, "geometry": {"type": "LineString", "coordinates": [[-72.34, 22.17], [-72.0, 22.38], [-71.55, 22.65], [-71.42, 23.35], [-71.14, 24.12], [-70.69, 24.73], [-69.26, 25.92], [-67.84, 26.38], [-66.19, 27.07], [-63.77, 28.05], [-63.05, 28.17], [-61.87, 28.82], [-60.82, 29.32], [-60.02, 29.95], [-59.79, 30.73], [-59.05, 31.6], [-58.24, 32.05], [-56.77, 32.8], [-56.02, 33.22], [-55.84, 33.45], [-54.9, 34.62], [-53.87, 35.93], [-53.32, 37.18], [-53.07, 38.15], [-52.52, 38.17], [-49.3, 38.83], [-47.12, 39.6], [-45.0, 40.18], [-42.04, 41.07], [-38.85, 41.67], [-35.62, 42.43], [-32.67, 42.9], [-32.8, 44.07], [-33.14, 44.85], [-33.7, 45.35], [-32.37, 45.05], [-31.8, 45.68], [-30.2, 46.27], [-28.07, 46.55], [-26.49, 46.63], [-22.4, 47.33], [-17.55, 47.52], [-14.15, 47.67], [-10.2, 47.77], [-6.6, 47.98], [-5.05, 48.0]]}}, {"type": "Feature", "properties": {"ship": "La Loir", "company": null, "power": "fr", "date_start": "1786-03-06", "date_end": "1786-04-23", "FromYear": 1786, "ToYear": 1786, "size": 719}, "geometry": {"type": "LineString", "coordinates": [[-5.09, 48.22], [-10.24, 46.45], [-11.54, 45.72], [-13.04, 43.47], [-14.64, 41.73], [-14.92, 41.73], [-14.65, 41.22], [-14.49, 41.73], [-14.02, 40.4], [-13.92, 40.3], [-14.45, 40.3], [-13.49, 40.17], [-12.72, 39.68], [-13.47, 38.77], [-14.55, 36.85], [-14.94, 36.72], [-15.77, 36.75], [-16.75, 35.62], [-17.62, 34.88], [-18.12, 34.12], [-18.67, 32.55], [-19.82, 31.72], [-19.24, 30.52], [-19.34, 29.62], [-19.94, 28.38], [-20.62, 26.72], [-21.15, 25.27], [-22.32, 23.93], [-23.97, 23.23], [-26.15, 22.38], [-29.02, 21.97], [-31.67, 21.32], [-33.84, 20.63], [-36.04, 19.9], [-38.14, 19.1], [-40.34, 18.4], [-42.19, 17.8], [-44.59, 17.03], [-46.95, 15.9], [-48.87, 15.18], [-50.69, 14.87], [-52.6, 14.67], [-54.2, 14.6], [-56.2, 14.62], [-58.27, 14.5], [-60.82, 14.45]]}}]}